{"type": "FeatureCollection", "features": [{"type": "Feature", "id": "node/1601018129", "properties": {"name": "Kutch District Police Headquarters", "operator": "", "district": "", "kind": "police"}, "geometry": {"type": "Point", "coordinates": [69.666462, 23.243011]}}, {"type": "Feature", "id": "node/1740714649", "properties": {"name": "Dumral Bazzar Police Station", "operator": "", "district": "", "kind": "police"}, "geometry": {"type": "Point", "coordinates": [72.864367, 22.691443]}}, {"type": "Feature", "id": "node/1763259331", "properties": {"name": "Nadiad Main Police Station", "operator": "", "district": "", "kind": "police"}, "geometry": {"type": "Point", "coordinates": [72.858504, 22.694236]}}, {"type": "Feature", "id": "node/1828263212", "properties": {"name": "Veraval Tower Police station", "operator": "", "district": "", "kind": "police"}, "geometry": {"type": "Point", "coordinates": [70.364784, 20.909735]}}, {"type": "Feature", "id": "node/1885476293", "properties": {"name": "Makarpura Road Police Station", "operator": "", "district": "", "kind": "police"}, "geometry": {"type": "Point", "coordinates": [73.203281, 22.27073]}}, {"type": "Feature", "id": "node/2231614174", "properties": {"name": "Sarkarwada Police Station, Gangapur Road", "operator": "", "district": "", "kind": "police"}, "geometry": {"type": "Point", "coordinates": [73.779722, 20.005643]}}, {"type": "Feature", "id": "node/2496597060", "properties": {"name": "Mahsana District Jail", "operator": "", "district": "", "kind": "police"}, "geometry": {"type": "Point", "coordinates": [72.384398, 23.609016]}}, {"type": "Feature", "id": "node/2629371913", "properties": {"name": "Chowk Bazar Police Station (Furja)", "operator": "", "district": "", "kind": "police"}, "geometry": {"type": "Point", "coordinates": [72.819454, 21.198325]}}, {"type": "Feature", "id": "node/2630973214", "properties": {"name": "Piplod Police Chowki", "operator": "", "district": "", "kind": "police"}, "geometry": {"type": "Point", "coordinates": [72.78033, 21.164831]}}, {"type": "Feature", "id": "node/2683229329", "properties": {"name": "Udhava police station", "operator": "", "district": "", "kind": "police"}, "geometry": {"type": "Point", "coordinates": [73.005191, 20.091938]}}, {"type": "Feature", "id": "node/2800537087", "properties": {"name": "Police chouki", "operator": "", "district": "", "kind": "police"}, "geometry": {"type": "Point", "coordinates": [72.917237, 20.124283]}}, {"type": "Feature", "id": "node/3026632067", "properties": {"name": "Dhundaleadi Police Stestion", "operator": "", "district": "", "kind": "police"}, "geometry": {"type": "Point", "coordinates": [72.918809, 20.049949]}}, {"type": "Feature", "id": "node/3236022280", "properties": {"name": "Ellisbridge Police Station", "operator": "Ahmedabad City Police", "district": "", "kind": "police"}, "geometry": {"type": "Point", "coordinates": [72.571642, 23.022886]}}, {"type": "Feature", "id": "node/3247356200", "properties": {"name": "Sardarnagar Police Station", "operator": "", "district": "", "kind": "police"}, "geometry": {"type": "Point", "coordinates": [72.620522, 23.080429]}}, {"type": "Feature", "id": "node/3247518115", "properties": {"name": "kalupur Police Station", "operator": "", "district": "", "kind": "police"}, "geometry": {"type": "Point", "coordinates": [72.593849, 23.028067]}}, {"type": "Feature", "id": "node/3294480829", "properties": {"name": "", "operator": "", "district": "", "kind": "police"}, "geometry": {"type": "Point", "coordinates": [70.378553, 20.910376]}}, {"type": "Feature", "id": "node/3296283179", "properties": {"name": "", "operator": "", "district": "", "kind": "police"}, "geometry": {"type": "Point", "coordinates": [71.005976, 20.739476]}}, {"type": "Feature", "id": "node/3296905327", "properties": {"name": "Police Station Diu", "operator": "", "district": "", "kind": "police"}, "geometry": {"type": "Point", "coordinates": [70.990772, 20.717635]}}, {"type": "Feature", "id": "node/3299344297", "properties": {"name": "", "operator": "", "district": "", "kind": "police"}, "geometry": {"type": "Point", "coordinates": [69.666133, 23.246734]}}, {"type": "Feature", "id": "node/3299344421", "properties": {"name": "", "operator": "", "district": "", "kind": "police"}, "geometry": {"type": "Point", "coordinates": [69.670341, 23.254258]}}, {"type": "Feature", "id": "node/3306683250", "properties": {"name": "Karanj Police Station", "operator": "", "district": "", "kind": "police"}, "geometry": {"type": "Point", "coordinates": [72.582039, 23.02451]}}, {"type": "Feature", "id": "node/3600579326", "properties": {"name": "Police Station , Nani Daman", "operator": "", "district": "", "kind": "police"}, "geometry": {"type": "Point", "coordinates": [72.833376, 20.417063]}}, {"type": "Feature", "id": "node/3622444415", "properties": {"name": "Police station", "operator": "", "district": "", "kind": "police"}, "geometry": {"type": "Point", "coordinates": [70.066525, 22.467447]}}, {"type": "Feature", "id": "node/3755161464", "properties": {"name": "", "operator": "", "district": "", "kind": "police"}, "geometry": {"type": "Point", "coordinates": [69.606449, 21.642595]}}, {"type": "Feature", "id": "node/3775189520", "properties": {"name": "SOLA POLICE STATION", "operator": "", "district": "", "kind": "police"}, "geometry": {"type": "Point", "coordinates": [72.529072, 23.086956]}}, {"type": "Feature", "id": "node/4268052361", "properties": {"name": "Police Headquaters", "operator": "", "district": "", "kind": "police"}, "geometry": {"type": "Point", "coordinates": [70.050539, 22.478277]}}, {"type": "Feature", "id": "node/4292013894", "properties": {"name": "Kalol police station", "operator": "", "district": "", "kind": "police"}, "geometry": {"type": "Point", "coordinates": [72.503977, 23.232153]}}, {"type": "Feature", "id": "node/4292073591", "properties": {"name": "BSF", "operator": "", "district": "", "kind": "police"}, "geometry": {"type": "Point", "coordinates": [72.380236, 23.49967]}}, {"type": "Feature", "id": "node/4296179893", "properties": {"name": "police station", "operator": "", "district": "", "kind": "police"}, "geometry": {"type": "Point", "coordinates": [72.392559, 23.60331]}}, {"type": "Feature", "id": "node/4297341692", "properties": {"name": "police parade Ground", "operator": "", "district": "", "kind": "police"}, "geometry": {"type": "Point", "coordinates": [72.393648, 23.610572]}}, {"type": "Feature", "id": "node/4297344289", "properties": {"name": "Police head quarters ", "operator": "", "district": "", "kind": "police"}, "geometry": {"type": "Point", "coordinates": [72.393312, 23.610471]}}, {"type": "Feature", "id": "node/4303548297", "properties": {"name": "Mehsana city trafic police", "operator": "", "district": "", "kind": "police"}, "geometry": {"type": "Point", "coordinates": [72.390092, 23.601746]}}, {"type": "Feature", "id": "node/4306901990", "properties": {"name": "Sarovar Police station", "operator": "", "district": "", "kind": "police"}, "geometry": {"type": "Point", "coordinates": [72.396289, 23.605809]}}, {"type": "Feature", "id": "node/4308250613", "properties": {"name": "Radhanpur circle police station", "operator": "", "district": "", "kind": "police"}, "geometry": {"type": "Point", "coordinates": [72.381672, 23.605624]}}, {"type": "Feature", "id": "node/4326820496", "properties": {"name": "kuvadva road police staion", "operator": "", "district": "", "kind": "police"}, "geometry": {"type": "Point", "coordinates": [70.835313, 22.314186]}}, {"type": "Feature", "id": "node/4358515491", "properties": {"name": "Vatva police", "operator": "", "district": "", "kind": "police"}, "geometry": {"type": "Point", "coordinates": [72.6275, 22.971854]}}, {"type": "Feature", "id": "node/4435502189", "properties": {"name": "Odhav police station (new building)", "operator": "", "district": "", "kind": "police"}, "geometry": {"type": "Point", "coordinates": [72.672498, 23.02594]}}, {"type": "Feature", "id": "node/4469973891", "properties": {"name": "Digital Printer", "operator": "", "district": "", "kind": "police"}, "geometry": {"type": "Point", "coordinates": [72.830086, 21.168991]}}, {"type": "Feature", "id": "node/4481510796", "properties": {"name": "Hanspura/Dehgam naka police station", "operator": "", "district": "", "kind": "police"}, "geometry": {"type": "Point", "coordinates": [72.686768, 23.08872]}}, {"type": "Feature", "id": "node/4488080693", "properties": {"name": "", "operator": "", "district": "", "kind": "police"}, "geometry": {"type": "Point", "coordinates": [72.3635, 23.072469]}}, {"type": "Feature", "id": "node/4508358594", "properties": {"name": "City police line &  A divison police station", "operator": "", "district": "", "kind": "police"}, "geometry": {"type": "Point", "coordinates": [70.835836, 22.813259]}}, {"type": "Feature", "id": "node/4510463892", "properties": {"name": "Police Station", "operator": "", "district": "", "kind": "police"}, "geometry": {"type": "Point", "coordinates": [72.863415, 22.675736]}}, {"type": "Feature", "id": "node/4646885289", "properties": {"name": "Gujarat university police station", "operator": "", "district": "", "kind": "police"}, "geometry": {"type": "Point", "coordinates": [72.540599, 23.034745]}}, {"type": "Feature", "id": "node/4794246530", "properties": {"name": "Maganpura Police Chowki", "operator": "", "district": "", "kind": "police"}, "geometry": {"type": "Point", "coordinates": [72.578572, 23.080519]}}, {"type": "Feature", "id": "node/4832529753", "properties": {"name": "Saputara Police Station", "operator": "", "district": "", "kind": "police"}, "geometry": {"type": "Point", "coordinates": [73.751977, 20.579251]}}, {"type": "Feature", "id": "node/5037460523", "properties": {"name": "Local crime branch office", "operator": "", "district": "", "kind": "police"}, "geometry": {"type": "Point", "coordinates": [70.458651, 21.528683]}}, {"type": "Feature", "id": "node/5068324627", "properties": {"name": "Ayad Police Station", "operator": "", "district": "", "kind": "police"}, "geometry": {"type": "Point", "coordinates": [73.712287, 24.587057]}}, {"type": "Feature", "id": "node/5450924166", "properties": {"name": "Police station", "operator": "", "district": "", "kind": "police"}, "geometry": {"type": "Point", "coordinates": [73.003137, 20.275498]}}, {"type": "Feature", "id": "node/5661768121", "properties": {"name": "Ranip Police Station", "operator": "", "district": "", "kind": "police"}, "geometry": {"type": "Point", "coordinates": [72.577996, 23.080607]}}, {"type": "Feature", "id": "node/7234808381", "properties": {"name": "Police Chowki", "operator": "Indian Police", "district": "", "kind": "police"}, "geometry": {"type": "Point", "coordinates": [69.719167, 22.979153]}}, {"type": "Feature", "id": "node/7652360648", "properties": {"name": "Police Station Taloda", "operator": "", "district": "", "kind": "police"}, "geometry": {"type": "Point", "coordinates": [74.213803, 21.564721]}}, {"type": "Feature", "id": "node/8815172866", "properties": {"name": "Police Station, Hatkesh", "operator": "", "district": "", "kind": "police"}, "geometry": {"type": "Point", "coordinates": [72.553017, 23.046706]}}, {"type": "Feature", "id": "node/8918196153", "properties": {"name": "Police Station Pindwara", "operator": "", "district": "", "kind": "police"}, "geometry": {"type": "Point", "coordinates": [73.045235, 24.791944]}}, {"type": "Feature", "id": "node/8938490629", "properties": {"name": "Police Station Swaroopganj", "operator": "", "district": "", "kind": "police"}, "geometry": {"type": "Point", "coordinates": [72.932251, 24.659724]}}, {"type": "Feature", "id": "node/9903992870", "properties": {"name": "Gandevi Police Station", "operator": "", "district": "", "kind": "police"}, "geometry": {"type": "Point", "coordinates": [73.005207, 20.813883]}}, {"type": "Feature", "id": "node/9907620351", "properties": {"name": "Udyognagar Police Chawki", "operator": "", "district": "", "kind": "police"}, "geometry": {"type": "Point", "coordinates": [70.050873, 22.457077]}}, {"type": "Feature", "id": "node/9914012349", "properties": {"name": "Meghpar Police Station", "operator": "", "district": "", "kind": "police"}, "geometry": {"type": "Point", "coordinates": [69.815544, 22.348706]}}, {"type": "Feature", "id": "node/9918580688", "properties": {"name": "Police station", "operator": "", "district": "", "kind": "police"}, "geometry": {"type": "Point", "coordinates": [72.996245, 20.811315]}}, {"type": "Feature", "id": "node/10233379398", "properties": {"name": "Dhrol Police Station", "operator": "", "district": "", "kind": "police"}, "geometry": {"type": "Point", "coordinates": [70.414185, 22.566361]}}, {"type": "Feature", "id": "node/10807001456", "properties": {"name": "City Police Station", "operator": "Government", "district": "", "kind": "police"}, "geometry": {"type": "Point", "coordinates": [74.49017, 20.043624]}}, {"type": "Feature", "id": "node/11149524311", "properties": {"name": "B-Division", "operator": "", "district": "", "kind": "police"}, "geometry": {"type": "Point", "coordinates": [70.460121, 21.52572]}}, {"type": "Feature", "id": "node/11149869643", "properties": {"name": "Police Head Quarters", "operator": "", "district": "", "kind": "police"}, "geometry": {"type": "Point", "coordinates": [70.461433, 21.517364]}}, {"type": "Feature", "id": "node/11149947480", "properties": {"name": "Police Line", "operator": "", "district": "", "kind": "police"}, "geometry": {"type": "Point", "coordinates": [70.463141, 21.513903]}}, {"type": "Feature", "id": "node/11680950110", "properties": {"name": "Niphad Police Station", "operator": "", "district": "Nashik", "kind": "police"}, "geometry": {"type": "Point", "coordinates": [74.107037, 20.077526]}}, {"type": "Feature", "id": "node/12101701686", "properties": {"name": "PRADHYUMAN NAGAR POLICE STATION", "operator": "", "district": "", "kind": "police"}, "geometry": {"type": "Point", "coordinates": [70.796517, 22.300615]}}, {"type": "Feature", "id": "node/12101762961", "properties": {"name": "Police Head Quarters", "operator": "", "district": "", "kind": "police"}, "geometry": {"type": "Point", "coordinates": [70.792103, 22.309027]}}, {"type": "Feature", "id": "node/12102232103", "properties": {"name": "Bhakti Nagar Police Station", "operator": "", "district": "", "kind": "police"}, "geometry": {"type": "Point", "coordinates": [70.811432, 22.277138]}}, {"type": "Feature", "id": "node/12334369040", "properties": {"name": "POLICE THANA PARSAD", "operator": "", "district": "SALUMBER", "kind": "police"}, "geometry": {"type": "Point", "coordinates": [73.699639, 24.188756]}}, {"type": "Feature", "id": "node/12424650238", "properties": {"name": "", "operator": "", "district": "", "kind": "police"}, "geometry": {"type": "Point", "coordinates": [73.685437, 24.569498]}}, {"type": "Feature", "id": "node/12424701826", "properties": {"name": "", "operator": "", "district": "", "kind": "police"}, "geometry": {"type": "Point", "coordinates": [73.694785, 24.575434]}}, {"type": "Feature", "id": "node/12437137201", "properties": {"name": "", "operator": "", "district": "", "kind": "police"}, "geometry": {"type": "Point", "coordinates": [73.686544, 24.573878]}}, {"type": "Feature", "id": "node/13208509981", "properties": {"name": "palitana rural station", "operator": "", "district": "", "kind": "police"}, "geometry": {"type": "Point", "coordinates": [71.831284, 21.531188]}}, {"type": "Feature", "id": "node/13208509982", "properties": {"name": "palitana town station", "operator": "", "district": "", "kind": "police"}, "geometry": {"type": "Point", "coordinates": [71.829931, 21.529462]}}, {"type": "Feature", "id": "node/13479578054", "properties": {"name": "Panchavato Karanja Police Chowky", "operator": "", "district": "", "kind": "police"}, "geometry": {"type": "Point", "coordinates": [73.794592, 20.009745]}}, {"type": "Feature", "id": "node/14008489675", "properties": {"name": "Dharampur Police Station", "operator": "", "district": "Valsad", "kind": "police"}, "geometry": {"type": "Point", "coordinates": [73.171739, 20.537785]}}, {"type": "Feature", "id": "node/14051465273", "properties": {"name": "Paldi Police Station", "operator": "", "district": "", "kind": "police"}, "geometry": {"type": "Point", "coordinates": [72.55637, 23.006513]}}, {"type": "Feature", "id": "node/14067832704", "properties": {"name": "Manek Chowk Police Post", "operator": "Gujarat Police", "district": "", "kind": "police"}, "geometry": {"type": "Point", "coordinates": [72.588914, 23.023207]}}, {"type": "Feature", "id": "node/14075449974", "properties": {"name": "Mota chiloda police station", "operator": "", "district": "", "kind": "police"}, "geometry": {"type": "Point", "coordinates": [72.730218, 23.227808]}}, {"type": "Feature", "id": "node/14096962798", "properties": {"name": "Rakhiyal police station", "operator": "", "district": "", "kind": "police"}, "geometry": {"type": "Point", "coordinates": [72.903083, 23.251211]}}, {"type": "Feature", "id": "way/111324920", "properties": {"name": "Hathi Pol (Elephant Gate)", "operator": "", "district": "", "kind": "police"}, "geometry": {"type": "Point", "coordinates": [73.687604, 24.586719]}}, {"type": "Feature", "id": "way/118695624", "properties": {"name": "Sabarmati Police Station", "operator": "", "district": "", "kind": "police"}, "geometry": {"type": "Point", "coordinates": [72.591623, 23.085266]}}, {"type": "Feature", "id": "way/257396869", "properties": {"name": "Vairyali bazar Police Chowki", "operator": "", "district": "", "kind": "police"}, "geometry": {"type": "Point", "coordinates": [72.823971, 21.205103]}}, {"type": "Feature", "id": "way/262563342", "properties": {"name": "police station talasari", "operator": "", "district": "", "kind": "police"}, "geometry": {"type": "Point", "coordinates": [72.917741, 20.118428]}}, {"type": "Feature", "id": "way/265383630", "properties": {"name": "Police Station Khanvel", "operator": "", "district": "", "kind": "police"}, "geometry": {"type": "Point", "coordinates": [73.068081, 20.127784]}}, {"type": "Feature", "id": "way/300611478", "properties": {"name": "Town Police", "operator": "", "district": "", "kind": "police"}, "geometry": {"type": "Point", "coordinates": [72.929409, 20.954181]}}, {"type": "Feature", "id": "way/318335636", "properties": {"name": "Vejalpur Police Station", "operator": "", "district": "", "kind": "police"}, "geometry": {"type": "Point", "coordinates": [72.537185, 22.996719]}}, {"type": "Feature", "id": "way/318335637", "properties": {"name": "Naranpura Police Station", "operator": "", "district": "", "kind": "police"}, "geometry": {"type": "Point", "coordinates": [72.566207, 23.06347]}}, {"type": "Feature", "id": "way/318335639", "properties": {"name": "Satelite Police Station", "operator": "", "district": "", "kind": "police"}, "geometry": {"type": "Point", "coordinates": [72.510996, 23.027693]}}, {"type": "Feature", "id": "way/318359719", "properties": {"name": "Karanj Police Station", "operator": "", "district": "", "kind": "police"}, "geometry": {"type": "Point", "coordinates": [72.584131, 23.030649]}}, {"type": "Feature", "id": "way/318379671", "properties": {"name": "Vastrapur Police Station", "operator": "", "district": "", "kind": "police"}, "geometry": {"type": "Point", "coordinates": [72.523265, 23.049178]}}, {"type": "Feature", "id": "way/318490584", "properties": {"name": "", "operator": "", "district": "", "kind": "police"}, "geometry": {"type": "Point", "coordinates": [72.62281, 23.021401]}}, {"type": "Feature", "id": "way/318502779", "properties": {"name": "Navarangpura Police Station", "operator": "", "district": "", "kind": "police"}, "geometry": {"type": "Point", "coordinates": [72.567223, 23.035009]}}, {"type": "Feature", "id": "way/318505023", "properties": {"name": "Maninagar Police Station", "operator": "", "district": "", "kind": "police"}, "geometry": {"type": "Point", "coordinates": [72.602329, 22.99845]}}, {"type": "Feature", "id": "way/318506394", "properties": {"name": "Khokhra Police Station", "operator": "", "district": "", "kind": "police"}, "geometry": {"type": "Point", "coordinates": [72.61969, 23.001662]}}, {"type": "Feature", "id": "way/318515858", "properties": {"name": "Danilimda Police Station", "operator": "", "district": "", "kind": "police"}, "geometry": {"type": "Point", "coordinates": [72.581254, 22.999016]}}, {"type": "Feature", "id": "way/318515859", "properties": {"name": "Gomptipur Police Station", "operator": "", "district": "", "kind": "police"}, "geometry": {"type": "Point", "coordinates": [72.612271, 23.021011]}}, {"type": "Feature", "id": "way/318517265", "properties": {"name": "Bapunagar Police Station", "operator": "", "district": "", "kind": "police"}, "geometry": {"type": "Point", "coordinates": [72.631356, 23.032436]}}, {"type": "Feature", "id": "way/318519000", "properties": {"name": "Vatva Police Station", "operator": "", "district": "", "kind": "police"}, "geometry": {"type": "Point", "coordinates": [72.611723, 22.957708]}}, {"type": "Feature", "id": "way/322229998", "properties": {"name": "Shahibaug Police Station", "operator": "", "district": "", "kind": "police"}, "geometry": {"type": "Point", "coordinates": [72.588887, 23.049785]}}, {"type": "Feature", "id": "way/326848214", "properties": {"name": "Karanj Police Station", "operator": "", "district": "", "kind": "police"}, "geometry": {"type": "Point", "coordinates": [72.584296, 23.030756]}}, {"type": "Feature", "id": "way/356909515", "properties": {"name": "City B Division Police Station", "operator": "", "district": "", "kind": "police"}, "geometry": {"type": "Point", "coordinates": [70.065079, 22.475527]}}, {"type": "Feature", "id": "way/372270215", "properties": {"name": "", "operator": "", "district": "", "kind": "police"}, "geometry": {"type": "Point", "coordinates": [69.624412, 21.639754]}}, {"type": "Feature", "id": "way/374810496", "properties": {"name": "Police Head Qurter", "operator": "", "district": "", "kind": "police"}, "geometry": {"type": "Point", "coordinates": [69.615405, 21.634842]}}, {"type": "Feature", "id": "way/442156427", "properties": {"name": "Police Headquaters Partapnagar", "operator": "Government", "district": "", "kind": "police"}, "geometry": {"type": "Point", "coordinates": [73.209107, 22.279815]}}, {"type": "Feature", "id": "way/446611274", "properties": {"name": "Vejalpur Police Chowky", "operator": "", "district": "", "kind": "police"}, "geometry": {"type": "Point", "coordinates": [72.522662, 23.004101]}}, {"type": "Feature", "id": "way/477622185", "properties": {"name": "Railway Police", "operator": "JMC", "district": "", "kind": "police"}, "geometry": {"type": "Point", "coordinates": [70.052185, 22.491576]}}, {"type": "Feature", "id": "way/544318913", "properties": {"name": "Khedbrahma Police Station", "operator": "", "district": "", "kind": "police"}, "geometry": {"type": "Point", "coordinates": [73.045686, 24.024796]}}, {"type": "Feature", "id": "way/640835627", "properties": {"name": "Women Police Station", "operator": "", "district": "", "kind": "police"}, "geometry": {"type": "Point", "coordinates": [74.430035, 23.532429]}}, {"type": "Feature", "id": "way/794663118", "properties": {"name": "Mahila Police station West", "operator": "Mahila Police station West", "district": "", "kind": "police"}, "geometry": {"type": "Point", "coordinates": [72.541413, 23.029182]}}, {"type": "Feature", "id": "way/835015490", "properties": {"name": "POLICE HEADQUARTERS, SILVASSA", "operator": "", "district": "Dadra and Nagar Haveli", "kind": "police"}, "geometry": {"type": "Point", "coordinates": [73.003881, 20.275519]}}, {"type": "Feature", "id": "way/973444842", "properties": {"name": "Sanand G.I.D.C police station", "operator": "", "district": "", "kind": "police"}, "geometry": {"type": "Point", "coordinates": [72.2948, 23.031392]}}, {"type": "Feature", "id": "way/1081692066", "properties": {"name": "S.P. Office (Superintendent of Police)", "operator": "", "district": "", "kind": "police"}, "geometry": {"type": "Point", "coordinates": [70.065319, 22.475226]}}, {"type": "Feature", "id": "way/1081692067", "properties": {"name": "Mahila Police Station (CAW cell)", "operator": "", "district": "", "kind": "police"}, "geometry": {"type": "Point", "coordinates": [70.06539, 22.475579]}}, {"type": "Feature", "id": "way/1081692068", "properties": {"name": "", "operator": "", "district": "", "kind": "police"}, "geometry": {"type": "Point", "coordinates": [70.065771, 22.475369]}}, {"type": "Feature", "id": "way/1173610047", "properties": {"name": "Police Chowki", "operator": "", "district": "", "kind": "police"}, "geometry": {"type": "Point", "coordinates": [72.724283, 24.608877]}}, {"type": "Feature", "id": "way/1182646769", "properties": {"name": "", "operator": "", "district": "", "kind": "police"}, "geometry": {"type": "Point", "coordinates": [73.240653, 23.769728]}}, {"type": "Feature", "id": "way/1252561007", "properties": {"name": "Bhatiya Police Stattion", "operator": "", "district": "", "kind": "police"}, "geometry": {"type": "Point", "coordinates": [69.271768, 22.09091]}}, {"type": "Feature", "id": "way/1342223122", "properties": {"name": "Gujarat Police Station", "operator": "", "district": "", "kind": "police"}, "geometry": {"type": "Point", "coordinates": [68.971013, 22.238699]}}, {"type": "Feature", "id": "way/1360312472", "properties": {"name": "BharatNagar Urban Police Station", "operator": "", "district": "", "kind": "police"}, "geometry": {"type": "Point", "coordinates": [72.160184, 21.745583]}}, {"type": "Feature", "id": "way/1360686731", "properties": {"name": "hiran magri police station", "operator": "", "district": "", "kind": "police"}, "geometry": {"type": "Point", "coordinates": [73.717442, 24.559858]}}, {"type": "Feature", "id": "way/1386556171", "properties": {"name": "Airport Police Station", "operator": "", "district": "", "kind": "police"}, "geometry": {"type": "Point", "coordinates": [73.216383, 22.333124]}}, {"type": "Feature", "id": "way/1433646827", "properties": {"name": "", "operator": "", "district": "", "kind": "police"}, "geometry": {"type": "Point", "coordinates": [68.961988, 22.238729]}}, {"type": "Feature", "id": "way/1434067832", "properties": {"name": "Homeguard chowk", "operator": "", "district": "", "kind": "police"}, "geometry": {"type": "Point", "coordinates": [68.96433, 22.239962]}}, {"type": "Feature", "id": "way/1449674082", "properties": {"name": "Police Parade Ground", "operator": "", "district": "", "kind": "police"}, "geometry": {"type": "Point", "coordinates": [72.802754, 21.180133]}}, {"type": "Feature", "id": "way/1449674896", "properties": {"name": "Mahila Police Station", "operator": "", "district": "", "kind": "police"}, "geometry": {"type": "Point", "coordinates": [72.803701, 21.179125]}}, {"type": "Feature", "id": "way/1466462255", "properties": {"name": "Police Training Academy", "operator": "", "district": "", "kind": "police"}, "geometry": {"type": "Point", "coordinates": [73.758886, 19.998309]}}]}