{"type": "FeatureCollection", "features": [{"type": "Feature", "id": 1063868305, "properties": {"kind": "fuel", "name": "", "operator": ""}, "geometry": {"type": "Point", "coordinates": [68.9588653, 22.2772325]}}, {"type": "Feature", "id": 1234840687, "properties": {"kind": "fuel", "name": "", "operator": ""}, "geometry": {"type": "Point", "coordinates": [72.0482474, 22.8593456]}}, {"type": "Feature", "id": 1234841416, "properties": {"kind": "fuel", "name": "Fuel Hp", "operator": ""}, "geometry": {"type": "Point", "coordinates": [70.8874181, 22.3342501]}}, {"type": "Feature", "id": 1234842598, "properties": {"kind": "fuel", "name": "", "operator": ""}, "geometry": {"type": "Point", "coordinates": [69.2481678, 21.9856987]}}, {"type": "Feature", "id": 1234843033, "properties": {"kind": "fuel", "name": "", "operator": ""}, "geometry": {"type": "Point", "coordinates": [70.6177314, 21.7545341]}}, {"type": "Feature", "id": 1234844162, "properties": {"kind": "fuel", "name": "", "operator": ""}, "geometry": {"type": "Point", "coordinates": [72.5531143, 23.156471]}}, {"type": "Feature", "id": 1234844704, "properties": {"kind": "fuel", "name": "Hindustan Petroleum", "operator": "Hindustan Petroleum"}, "geometry": {"type": "Point", "coordinates": [72.5737935, 23.1768017]}}, {"type": "Feature", "id": 1234844705, "properties": {"kind": "fuel", "name": "Fuel Sertha Road", "operator": ""}, "geometry": {"type": "Point", "coordinates": [72.5280508, 23.211777]}}, {"type": "Feature", "id": 1234846673, "properties": {"kind": "fuel", "name": "", "operator": ""}, "geometry": {"type": "Point", "coordinates": [72.6360549, 23.2097381]}}, {"type": "Feature", "id": 1234846882, "properties": {"kind": "fuel", "name": "", "operator": ""}, "geometry": {"type": "Point", "coordinates": [72.6308627, 23.1053991]}}, {"type": "Feature", "id": 1234851009, "properties": {"kind": "fuel", "name": "", "operator": ""}, "geometry": {"type": "Point", "coordinates": [72.1145011, 23.720193]}}, {"type": "Feature", "id": 1234851017, "properties": {"kind": "fuel", "name": "", "operator": ""}, "geometry": {"type": "Point", "coordinates": [72.1186744, 23.7184932]}}, {"type": "Feature", "id": 1234853048, "properties": {"kind": "fuel", "name": "", "operator": ""}, "geometry": {"type": "Point", "coordinates": [72.2520974, 23.8211089]}}, {"type": "Feature", "id": 1234854044, "properties": {"kind": "fuel", "name": "", "operator": ""}, "geometry": {"type": "Point", "coordinates": [72.3816414, 23.7928998]}}, {"type": "Feature", "id": 1234855116, "properties": {"kind": "fuel", "name": "Fuel indian oil", "operator": ""}, "geometry": {"type": "Point", "coordinates": [72.3892251, 23.6227331]}}, {"type": "Feature", "id": 1234855342, "properties": {"kind": "fuel", "name": "", "operator": ""}, "geometry": {"type": "Point", "coordinates": [72.3793769, 23.5482493]}}, {"type": "Feature", "id": 1234857813, "properties": {"kind": "fuel", "name": "", "operator": ""}, "geometry": {"type": "Point", "coordinates": [72.8563456, 22.6961501]}}, {"type": "Feature", "id": 1234858212, "properties": {"kind": "fuel", "name": "", "operator": ""}, "geometry": {"type": "Point", "coordinates": [73.0272995, 22.5097917]}}, {"type": "Feature", "id": 1234858215, "properties": {"kind": "fuel", "name": "", "operator": ""}, "geometry": {"type": "Point", "coordinates": [73.0478733, 22.4836313]}}, {"type": "Feature", "id": 1236530101, "properties": {"kind": "fuel", "name": "", "operator": ""}, "geometry": {"type": "Point", "coordinates": [73.1430738, 22.3927409]}}, {"type": "Feature", "id": 1236531440, "properties": {"kind": "fuel", "name": "", "operator": ""}, "geometry": {"type": "Point", "coordinates": [73.1479157, 22.3860446]}}, {"type": "Feature", "id": 1236533395, "properties": {"kind": "fuel", "name": "Fuel", "operator": ""}, "geometry": {"type": "Point", "coordinates": [73.1923745, 22.2032701]}}, {"type": "Feature", "id": 1236535367, "properties": {"kind": "fuel", "name": "Fuel", "operator": ""}, "geometry": {"type": "Point", "coordinates": [73.0601931, 21.6589734]}}, {"type": "Feature", "id": 1236535376, "properties": {"kind": "fuel", "name": "", "operator": ""}, "geometry": {"type": "Point", "coordinates": [73.0397829, 21.6455286]}}, {"type": "Feature", "id": 1236535893, "properties": {"kind": "fuel", "name": "Fuel", "operator": ""}, "geometry": {"type": "Point", "coordinates": [72.9979112, 21.5772542]}}, {"type": "Feature", "id": 1236535898, "properties": {"kind": "fuel", "name": "Fuel", "operator": ""}, "geometry": {"type": "Point", "coordinates": [72.9954063, 21.5866414]}}, {"type": "Feature", "id": 1236540029, "properties": {"kind": "fuel", "name": "Fuel", "operator": ""}, "geometry": {"type": "Point", "coordinates": [72.9586925, 21.3424228]}}, {"type": "Feature", "id": 1236540034, "properties": {"kind": "fuel", "name": "Fuel", "operator": ""}, "geometry": {"type": "Point", "coordinates": [72.9583133, 21.3758248]}}, {"type": "Feature", "id": 1236543131, "properties": {"kind": "fuel", "name": "", "operator": ""}, "geometry": {"type": "Point", "coordinates": [72.9706208, 21.0320248]}}, {"type": "Feature", "id": 1236543132, "properties": {"kind": "fuel", "name": "", "operator": ""}, "geometry": {"type": "Point", "coordinates": [72.9710195, 21.0298606]}}, {"type": "Feature", "id": 1236547566, "properties": {"kind": "fuel", "name": "", "operator": ""}, "geometry": {"type": "Point", "coordinates": [72.9702367, 20.9972339]}}, {"type": "Feature", "id": 1236547572, "properties": {"kind": "fuel", "name": "Fuel", "operator": ""}, "geometry": {"type": "Point", "coordinates": [73.0159814, 20.9181022]}}, {"type": "Feature", "id": 1236558953, "properties": {"kind": "fuel", "name": "Fuel", "operator": ""}, "geometry": {"type": "Point", "coordinates": [73.0629989, 20.7618766]}}, {"type": "Feature", "id": 1236558954, "properties": {"kind": "fuel", "name": "Fuel", "operator": ""}, "geometry": {"type": "Point", "coordinates": [73.1627986, 20.8091822]}}, {"type": "Feature", "id": 1236558955, "properties": {"kind": "fuel", "name": "", "operator": ""}, "geometry": {"type": "Point", "coordinates": [73.3396816, 20.7993205]}}, {"type": "Feature", "id": 1236558956, "properties": {"kind": "fuel", "name": "Fuel", "operator": ""}, "geometry": {"type": "Point", "coordinates": [73.3539815, 20.7828003]}}, {"type": "Feature", "id": 1236558957, "properties": {"kind": "fuel", "name": "Fuel", "operator": ""}, "geometry": {"type": "Point", "coordinates": [73.7500323, 20.5718412]}}, {"type": "Feature", "id": 1236558958, "properties": {"kind": "fuel", "name": "Fuel", "operator": ""}, "geometry": {"type": "Point", "coordinates": [73.8877129, 20.327692]}}, {"type": "Feature", "id": 1236558959, "properties": {"kind": "fuel", "name": "Fuel", "operator": ""}, "geometry": {"type": "Point", "coordinates": [73.0636215, 20.780052]}}, {"type": "Feature", "id": 1236558960, "properties": {"kind": "fuel", "name": "Fuel", "operator": ""}, "geometry": {"type": "Point", "coordinates": [73.071903, 20.8040784]}}, {"type": "Feature", "id": 1236560621, "properties": {"kind": "fuel", "name": "Fuel", "operator": ""}, "geometry": {"type": "Point", "coordinates": [73.8258111, 20.1709596]}}, {"type": "Feature", "id": 1236560625, "properties": {"kind": "fuel", "name": "Fuel", "operator": ""}, "geometry": {"type": "Point", "coordinates": [73.8523815, 20.2666186]}}, {"type": "Feature", "id": 1545193232, "properties": {"kind": "fuel", "name": "BP", "operator": ""}, "geometry": {"type": "Point", "coordinates": [69.757727, 23.23024]}}, {"type": "Feature", "id": 1545193233, "properties": {"kind": "fuel", "name": "BP", "operator": ""}, "geometry": {"type": "Point", "coordinates": [69.67265, 23.2492291]}}, {"type": "Feature", "id": 1545193286, "properties": {"kind": "fuel", "name": "HP", "operator": ""}, "geometry": {"type": "Point", "coordinates": [69.7523131, 23.230557]}}, {"type": "Feature", "id": 1545193289, "properties": {"kind": "fuel", "name": "HP", "operator": ""}, "geometry": {"type": "Point", "coordinates": [69.7167229, 23.2395937]}}, {"type": "Feature", "id": 1545193297, "properties": {"kind": "fuel", "name": "HP", "operator": ""}, "geometry": {"type": "Point", "coordinates": [69.7137391, 23.2400593]}}, {"type": "Feature", "id": 1545193312, "properties": {"kind": "fuel", "name": "IOC", "operator": ""}, "geometry": {"type": "Point", "coordinates": [69.7153154, 23.2402662]}}, {"type": "Feature", "id": 1545193404, "properties": {"kind": "fuel", "name": "Reliance", "operator": ""}, "geometry": {"type": "Point", "coordinates": [69.7250174, 23.2376797]}}, {"type": "Feature", "id": 1601592084, "properties": {"kind": "fuel", "name": "", "operator": ""}, "geometry": {"type": "Point", "coordinates": [73.3101837, 21.2577726]}}, {"type": "Feature", "id": 1601592101, "properties": {"kind": "fuel", "name": "", "operator": ""}, "geometry": {"type": "Point", "coordinates": [73.2867949, 21.2588739]}}, {"type": "Feature", "id": 1608839819, "properties": {"kind": "fuel", "name": "", "operator": ""}, "geometry": {"type": "Point", "coordinates": [73.1291582, 21.699959]}}, {"type": "Feature", "id": 1608839985, "properties": {"kind": "fuel", "name": "", "operator": ""}, "geometry": {"type": "Point", "coordinates": [73.1486931, 21.7045281]}}, {"type": "Feature", "id": 1746677973, "properties": {"kind": "fuel", "name": "HP Fuel Station", "operator": "HP"}, "geometry": {"type": "Point", "coordinates": [72.5139509, 23.0331106]}}, {"type": "Feature", "id": 1752606250, "properties": {"kind": "fuel", "name": "Kuber Petroleum", "operator": ""}, "geometry": {"type": "Point", "coordinates": [72.8662124, 22.6834705]}}, {"type": "Feature", "id": 1781763832, "properties": {"kind": "fuel", "name": "Ansh Petrol Pump", "operator": ""}, "geometry": {"type": "Point", "coordinates": [72.5644882, 23.0045263]}}, {"type": "Feature", "id": 1952553001, "properties": {"kind": "fuel", "name": "Akhbarnagar petrol pump", "operator": ""}, "geometry": {"type": "Point", "coordinates": [72.5619985, 23.0684998]}}, {"type": "Feature", "id": 2297199989, "properties": {"kind": "fuel", "name": "HP", "operator": ""}, "geometry": {"type": "Point", "coordinates": [73.1525701, 22.2949821]}}, {"type": "Feature", "id": 2377178512, "properties": {"kind": "fuel", "name": "", "operator": ""}, "geometry": {"type": "Point", "coordinates": [72.5841287, 23.0263196]}}, {"type": "Feature", "id": 2501361108, "properties": {"kind": "fuel", "name": "Jay Ambe Petroleum", "operator": ""}, "geometry": {"type": "Point", "coordinates": [72.3200908, 23.3011313]}}, {"type": "Feature", "id": 2525193306, "properties": {"kind": "fuel", "name": "Pashabhai B Patel  Petrol n CNG", "operator": ""}, "geometry": {"type": "Point", "coordinates": [72.3770491, 23.5877546]}}, {"type": "Feature", "id": 2525267812, "properties": {"kind": "fuel", "name": "Gallops Motors Pvt Ltd", "operator": ""}, "geometry": {"type": "Point", "coordinates": [72.3690341, 23.5814765]}}, {"type": "Feature", "id": 2525267815, "properties": {"kind": "fuel", "name": "Jai Madi Petroleum", "operator": ""}, "geometry": {"type": "Point", "coordinates": [72.3695151, 23.5804032]}}, {"type": "Feature", "id": 2527806367, "properties": {"kind": "fuel", "name": "Auto Lpg Gas STation", "operator": ""}, "geometry": {"type": "Point", "coordinates": [72.1202969, 23.8327641]}}, {"type": "Feature", "id": 2528843325, "properties": {"kind": "fuel", "name": "Dharti pertoleum  BPCL", "operator": ""}, "geometry": {"type": "Point", "coordinates": [72.1577823, 24.0118944]}}, {"type": "Feature", "id": 2558169851, "properties": {"kind": "fuel", "name": "Indian Oil", "operator": ""}, "geometry": {"type": "Point", "coordinates": [71.9133711, 21.8101479]}}, {"type": "Feature", "id": 2558169855, "properties": {"kind": "fuel", "name": "Bharat Petroleum", "operator": ""}, "geometry": {"type": "Point", "coordinates": [71.3812872, 21.7167288]}}, {"type": "Feature", "id": 2558169856, "properties": {"kind": "fuel", "name": "", "operator": ""}, "geometry": {"type": "Point", "coordinates": [71.2562386, 21.6200075]}}, {"type": "Feature", "id": 2558169857, "properties": {"kind": "fuel", "name": "Reliance", "operator": ""}, "geometry": {"type": "Point", "coordinates": [71.2498766, 21.6183928]}}, {"type": "Feature", "id": 2558169860, "properties": {"kind": "fuel", "name": "Bharat Petroleum", "operator": ""}, "geometry": {"type": "Point", "coordinates": [71.1919201, 21.5833169]}}, {"type": "Feature", "id": 2558169861, "properties": {"kind": "fuel", "name": "", "operator": ""}, "geometry": {"type": "Point", "coordinates": [71.1655457, 21.5549361]}}, {"type": "Feature", "id": 2558169862, "properties": {"kind": "fuel", "name": "", "operator": ""}, "geometry": {"type": "Point", "coordinates": [71.1621257, 21.4966923]}}, {"type": "Feature", "id": 2558169863, "properties": {"kind": "fuel", "name": "Indian Oil", "operator": ""}, "geometry": {"type": "Point", "coordinates": [71.163644, 21.4186458]}}, {"type": "Feature", "id": 2558169865, "properties": {"kind": "fuel", "name": "Indian Oil", "operator": ""}, "geometry": {"type": "Point", "coordinates": [71.2526238, 21.1404641]}}, {"type": "Feature", "id": 2558169866, "properties": {"kind": "fuel", "name": "", "operator": ""}, "geometry": {"type": "Point", "coordinates": [71.0692211, 20.9251658]}}, {"type": "Feature", "id": 2558169870, "properties": {"kind": "fuel", "name": "Indian Oil", "operator": ""}, "geometry": {"type": "Point", "coordinates": [70.9497562, 20.7145109]}}, {"type": "Feature", "id": 2558169871, "properties": {"kind": "fuel", "name": "Reliance", "operator": ""}, "geometry": {"type": "Point", "coordinates": [70.9672217, 20.7141872]}}, {"type": "Feature", "id": 2561089947, "properties": {"kind": "fuel", "name": "Bharat Petroleum", "operator": ""}, "geometry": {"type": "Point", "coordinates": [72.9164489, 20.1241337]}}, {"type": "Feature", "id": 2562424750, "properties": {"kind": "fuel", "name": "Indian Oil", "operator": ""}, "geometry": {"type": "Point", "coordinates": [73.1922296, 22.1969687]}}, {"type": "Feature", "id": 2562424770, "properties": {"kind": "fuel", "name": "Reliance", "operator": ""}, "geometry": {"type": "Point", "coordinates": [73.1915116, 22.1942173]}}, {"type": "Feature", "id": 2562424792, "properties": {"kind": "fuel", "name": "Indian Oil", "operator": ""}, "geometry": {"type": "Point", "coordinates": [73.0400572, 21.8105596]}}, {"type": "Feature", "id": 2562424794, "properties": {"kind": "fuel", "name": "Indian Oil", "operator": ""}, "geometry": {"type": "Point", "coordinates": [73.0259597, 21.7767339]}}, {"type": "Feature", "id": 2562424798, "properties": {"kind": "fuel", "name": "Gujarat Gas", "operator": ""}, "geometry": {"type": "Point", "coordinates": [73.0030613, 21.7188022]}}, {"type": "Feature", "id": 2562424799, "properties": {"kind": "fuel", "name": "HP", "operator": ""}, "geometry": {"type": "Point", "coordinates": [73.0005321, 21.7107407]}}, {"type": "Feature", "id": 2562424804, "properties": {"kind": "fuel", "name": "HP", "operator": ""}, "geometry": {"type": "Point", "coordinates": [73.0005704, 21.499121]}}, {"type": "Feature", "id": 2562424805, "properties": {"kind": "fuel", "name": "Indian Oil", "operator": ""}, "geometry": {"type": "Point", "coordinates": [72.9996924, 21.4902166]}}, {"type": "Feature", "id": 2562424807, "properties": {"kind": "fuel", "name": "Indian Oil", "operator": ""}, "geometry": {"type": "Point", "coordinates": [72.9755999, 21.4409883]}}, {"type": "Feature", "id": 2562424808, "properties": {"kind": "fuel", "name": "Indian Oil", "operator": ""}, "geometry": {"type": "Point", "coordinates": [72.9706242, 21.4369776]}}, {"type": "Feature", "id": 2562424810, "properties": {"kind": "fuel", "name": "Bharat Petroleum", "operator": ""}, "geometry": {"type": "Point", "coordinates": [72.9650607, 21.4167718]}}, {"type": "Feature", "id": 2562424813, "properties": {"kind": "fuel", "name": "Bharat Petroleum", "operator": ""}, "geometry": {"type": "Point", "coordinates": [73.0670003, 20.8624983]}}, {"type": "Feature", "id": 2562424814, "properties": {"kind": "fuel", "name": "Indian Oil", "operator": ""}, "geometry": {"type": "Point", "coordinates": [73.1362703, 20.8475867]}}, {"type": "Feature", "id": 2579374948, "properties": {"kind": "fuel", "name": "Jia and Vishwa Petroleum BPCL, Amipura", "operator": ""}, "geometry": {"type": "Point", "coordinates": [72.3937133, 23.4730097]}}, {"type": "Feature", "id": 2591733397, "properties": {"kind": "fuel", "name": "Indian Oil", "operator": ""}, "geometry": {"type": "Point", "coordinates": [73.693238, 24.5974899]}}, {"type": "Feature", "id": 2595261662, "properties": {"kind": "fuel", "name": "Bharat Petroleum", "operator": ""}, "geometry": {"type": "Point", "coordinates": [73.6278476, 24.7219947]}}, {"type": "Feature", "id": 2595261673, "properties": {"kind": "fuel", "name": "Bharat Petroleum", "operator": ""}, "geometry": {"type": "Point", "coordinates": [73.689711, 24.5906941]}}, {"type": "Feature", "id": 2682232631, "properties": {"kind": "fuel", "name": "", "operator": ""}, "geometry": {"type": "Point", "coordinates": [72.9138229, 20.1039506]}}, {"type": "Feature", "id": 2883563109, "properties": {"kind": "fuel", "name": "", "operator": ""}, "geometry": {"type": "Point", "coordinates": [73.3685762, 21.6403791]}}, {"type": "Feature", "id": 3251106820, "properties": {"kind": "fuel", "name": "Bharat Petroleum", "operator": ""}, "geometry": {"type": "Point", "coordinates": [71.184105, 22.4212593]}}, {"type": "Feature", "id": 3251106824, "properties": {"kind": "fuel", "name": "Indian Oil Petrol Pump", "operator": ""}, "geometry": {"type": "Point", "coordinates": [71.1814762, 22.4213438]}}, {"type": "Feature", "id": 3276828112, "properties": {"kind": "fuel", "name": "", "operator": ""}, "geometry": {"type": "Point", "coordinates": [72.1806556, 22.2454073]}}, {"type": "Feature", "id": 3276828176, "properties": {"kind": "fuel", "name": "", "operator": ""}, "geometry": {"type": "Point", "coordinates": [72.1881124, 22.251392]}}, {"type": "Feature", "id": 3278092572, "properties": {"kind": "fuel", "name": "", "operator": ""}, "geometry": {"type": "Point", "coordinates": [72.6568937, 21.7159595]}}, {"type": "Feature", "id": 3278092573, "properties": {"kind": "fuel", "name": "", "operator": ""}, "geometry": {"type": "Point", "coordinates": [72.6574255, 21.7161563]}}, {"type": "Feature", "id": 3294481207, "properties": {"kind": "fuel", "name": "", "operator": ""}, "geometry": {"type": "Point", "coordinates": [70.4587573, 21.5259643]}}, {"type": "Feature", "id": 3296282194, "properties": {"kind": "fuel", "name": "Indian Oil", "operator": ""}, "geometry": {"type": "Point", "coordinates": [71.0407721, 20.8244573]}}, {"type": "Feature", "id": 3296283182, "properties": {"kind": "fuel", "name": "", "operator": ""}, "geometry": {"type": "Point", "coordinates": [71.0416778, 20.8209504]}}, {"type": "Feature", "id": 3297005190, "properties": {"kind": "fuel", "name": "", "operator": ""}, "geometry": {"type": "Point", "coordinates": [71.505145, 21.0083667]}}, {"type": "Feature", "id": 3297005255, "properties": {"kind": "fuel", "name": "C Raj & Co.", "operator": ""}, "geometry": {"type": "Point", "coordinates": [71.7853433, 21.1076273]}}, {"type": "Feature", "id": 3299342054, "properties": {"kind": "fuel", "name": "", "operator": ""}, "geometry": {"type": "Point", "coordinates": [69.3531543, 22.8289459]}}, {"type": "Feature", "id": 3299344188, "properties": {"kind": "fuel", "name": "Indian Oil", "operator": ""}, "geometry": {"type": "Point", "coordinates": [69.3878282, 22.8624408]}}, {"type": "Feature", "id": 3299344257, "properties": {"kind": "fuel", "name": "", "operator": ""}, "geometry": {"type": "Point", "coordinates": [69.980407, 23.1461298]}}, {"type": "Feature", "id": 3299344424, "properties": {"kind": "fuel", "name": "", "operator": ""}, "geometry": {"type": "Point", "coordinates": [69.6771968, 23.2544789]}}, {"type": "Feature", "id": 3302227672, "properties": {"kind": "fuel", "name": "Hindustan Petroleum Station", "operator": "Hindustan Petroleum"}, "geometry": {"type": "Point", "coordinates": [72.5638517, 23.0120486]}}, {"type": "Feature", "id": 3303104652, "properties": {"kind": "fuel", "name": "", "operator": ""}, "geometry": {"type": "Point", "coordinates": [71.4714133, 22.9915432]}}, {"type": "Feature", "id": 3303104729, "properties": {"kind": "fuel", "name": "HP", "operator": ""}, "geometry": {"type": "Point", "coordinates": [71.4939758, 22.9973659]}}, {"type": "Feature", "id": 3303324834, "properties": {"kind": "fuel", "name": "HP", "operator": ""}, "geometry": {"type": "Point", "coordinates": [71.175394, 23.0031489]}}, {"type": "Feature", "id": 3303325912, "properties": {"kind": "fuel", "name": "", "operator": ""}, "geometry": {"type": "Point", "coordinates": [70.9127509, 23.0404313]}}, {"type": "Feature", "id": 3303325913, "properties": {"kind": "fuel", "name": "", "operator": ""}, "geometry": {"type": "Point", "coordinates": [70.9040879, 23.0431854]}}, {"type": "Feature", "id": 3303325919, "properties": {"kind": "fuel", "name": "HP", "operator": ""}, "geometry": {"type": "Point", "coordinates": [70.7841916, 23.0967905]}}, {"type": "Feature", "id": 3303325944, "properties": {"kind": "fuel", "name": "", "operator": ""}, "geometry": {"type": "Point", "coordinates": [71.1072311, 23.133596]}}, {"type": "Feature", "id": 3303325947, "properties": {"kind": "fuel", "name": "", "operator": ""}, "geometry": {"type": "Point", "coordinates": [71.1091482, 23.1336275]}}, {"type": "Feature", "id": 3306683260, "properties": {"kind": "fuel", "name": "", "operator": ""}, "geometry": {"type": "Point", "coordinates": [72.5529832, 23.0049181]}}, {"type": "Feature", "id": 3306683612, "properties": {"kind": "fuel", "name": "Indian Oil", "operator": ""}, "geometry": {"type": "Point", "coordinates": [72.5955759, 23.0396523]}}, {"type": "Feature", "id": 3393656497, "properties": {"kind": "fuel", "name": "Adani CNG Gas Station", "operator": "Adani"}, "geometry": {"type": "Point", "coordinates": [72.5864365, 23.011445]}}, {"type": "Feature", "id": 3600653812, "properties": {"kind": "fuel", "name": "Petrol Pump Station", "operator": ""}, "geometry": {"type": "Point", "coordinates": [72.8318033, 20.3988279]}}, {"type": "Feature", "id": 3600653813, "properties": {"kind": "fuel", "name": "CP Shah Petrol Pump", "operator": ""}, "geometry": {"type": "Point", "coordinates": [72.8378758, 20.4175804]}}, {"type": "Feature", "id": 3600653814, "properties": {"kind": "fuel", "name": "E. Nasservanji Petrol Pump", "operator": ""}, "geometry": {"type": "Point", "coordinates": [72.8389981, 20.4173417]}}, {"type": "Feature", "id": 3600653815, "properties": {"kind": "fuel", "name": "Sagar Petroleum", "operator": ""}, "geometry": {"type": "Point", "coordinates": [72.8372619, 20.4204049]}}, {"type": "Feature", "id": 3647017027, "properties": {"kind": "fuel", "name": "", "operator": ""}, "geometry": {"type": "Point", "coordinates": [73.2039355, 22.3206224]}}, {"type": "Feature", "id": 3737037398, "properties": {"kind": "fuel", "name": "Bharat Petroleum", "operator": "Bharat Petroleum"}, "geometry": {"type": "Point", "coordinates": [70.9512373, 20.7145333]}}, {"type": "Feature", "id": 3737049858, "properties": {"kind": "fuel", "name": "", "operator": "Bharat Petroleum"}, "geometry": {"type": "Point", "coordinates": [72.831743, 20.39805]}}, {"type": "Feature", "id": 3737049859, "properties": {"kind": "fuel", "name": "", "operator": "Bharat Petroleum"}, "geometry": {"type": "Point", "coordinates": [72.8882791, 20.4010337]}}, {"type": "Feature", "id": 3737049860, "properties": {"kind": "fuel", "name": "", "operator": "Bharat Petroleum"}, "geometry": {"type": "Point", "coordinates": [72.8886847, 20.4015501]}}, {"type": "Feature", "id": 3737049861, "properties": {"kind": "fuel", "name": "", "operator": "Bharat Petroleum"}, "geometry": {"type": "Point", "coordinates": [72.8849001, 20.4071681]}}, {"type": "Feature", "id": 3737049862, "properties": {"kind": "fuel", "name": "", "operator": "Bharat Petroleum"}, "geometry": {"type": "Point", "coordinates": [72.9581131, 20.5458112]}}, {"type": "Feature", "id": 3776199889, "properties": {"kind": "fuel", "name": "Nayara", "operator": ""}, "geometry": {"type": "Point", "coordinates": [73.6900512, 24.6064554]}}, {"type": "Feature", "id": 3798018446, "properties": {"kind": "fuel", "name": "Hindustan Petroleum", "operator": ""}, "geometry": {"type": "Point", "coordinates": [73.4428343, 23.7602999]}}, {"type": "Feature", "id": 3898183127, "properties": {"kind": "fuel", "name": "IOC", "operator": ""}, "geometry": {"type": "Point", "coordinates": [72.6973521, 23.1614522]}}, {"type": "Feature", "id": 3902104973, "properties": {"kind": "fuel", "name": "", "operator": ""}, "geometry": {"type": "Point", "coordinates": [73.5036101, 24.7791684]}}, {"type": "Feature", "id": 3903325789, "properties": {"kind": "fuel", "name": "", "operator": ""}, "geometry": {"type": "Point", "coordinates": [71.1516785, 23.7534001]}}, {"type": "Feature", "id": 3903538198, "properties": {"kind": "fuel", "name": "", "operator": ""}, "geometry": {"type": "Point", "coordinates": [69.745239, 22.9036117]}}, {"type": "Feature", "id": 3903548386, "properties": {"kind": "fuel", "name": "", "operator": ""}, "geometry": {"type": "Point", "coordinates": [69.9092528, 22.4284887]}}, {"type": "Feature", "id": 3905303319, "properties": {"kind": "fuel", "name": "", "operator": ""}, "geometry": {"type": "Point", "coordinates": [71.6165999, 21.1638652]}}, {"type": "Feature", "id": 3905334117, "properties": {"kind": "fuel", "name": "", "operator": ""}, "geometry": {"type": "Point", "coordinates": [73.7876716, 21.5433897]}}, {"type": "Feature", "id": 4089678921, "properties": {"kind": "fuel", "name": "", "operator": ""}, "geometry": {"type": "Point", "coordinates": [68.2669098, 24.6189425]}}, {"type": "Feature", "id": 4170686089, "properties": {"kind": "fuel", "name": "hi petrol pump", "operator": ""}, "geometry": {"type": "Point", "coordinates": [72.6393779, 23.2165167]}}, {"type": "Feature", "id": 4254423389, "properties": {"kind": "fuel", "name": "Shell", "operator": ""}, "geometry": {"type": "Point", "coordinates": [72.5124778, 23.0121167]}}, {"type": "Feature", "id": 4269764736, "properties": {"kind": "fuel", "name": "", "operator": ""}, "geometry": {"type": "Point", "coordinates": [70.0702369, 22.4622402]}}, {"type": "Feature", "id": 4286109792, "properties": {"kind": "fuel", "name": "bharat petrolieum", "operator": ""}, "geometry": {"type": "Point", "coordinates": [72.4002933, 23.6160433]}}, {"type": "Feature", "id": 4288422511, "properties": {"kind": "fuel", "name": "Hindustan Petroleum", "operator": "SWASTIC SERVICE STATION"}, "geometry": {"type": "Point", "coordinates": [72.4403794, 23.2826715]}}, {"type": "Feature", "id": 4288488089, "properties": {"kind": "fuel", "name": "Rajkamal petrol pump", "operator": ""}, "geometry": {"type": "Point", "coordinates": [72.3791752, 23.5965734]}}, {"type": "Feature", "id": 4291987894, "properties": {"kind": "fuel", "name": "indian oil", "operator": ""}, "geometry": {"type": "Point", "coordinates": [71.210065, 22.432559]}}, {"type": "Feature", "id": 4291987897, "properties": {"kind": "fuel", "name": "Bharat petroleum CNG", "operator": ""}, "geometry": {"type": "Point", "coordinates": [72.4407812, 23.2796375]}}, {"type": "Feature", "id": 4291987899, "properties": {"kind": "fuel", "name": "Esaar petroleum", "operator": ""}, "geometry": {"type": "Point", "coordinates": [72.3719085, 23.5837911]}}, {"type": "Feature", "id": 4292013898, "properties": {"kind": "fuel", "name": "indianoil", "operator": ""}, "geometry": {"type": "Point", "coordinates": [72.405766, 23.3791205]}}, {"type": "Feature", "id": 4292039790, "properties": {"kind": "fuel", "name": "petrol pump", "operator": ""}, "geometry": {"type": "Point", "coordinates": [72.4798036, 23.2560241]}}, {"type": "Feature", "id": 4292039791, "properties": {"kind": "fuel", "name": "indian oil petrol", "operator": ""}, "geometry": {"type": "Point", "coordinates": [72.4780641, 23.2573335]}}, {"type": "Feature", "id": 4292039797, "properties": {"kind": "fuel", "name": "indian oil", "operator": ""}, "geometry": {"type": "Point", "coordinates": [72.416631, 23.3505981]}}, {"type": "Feature", "id": 4292039994, "properties": {"kind": "fuel", "name": "Bharat petroleum", "operator": ""}, "geometry": {"type": "Point", "coordinates": [72.5054582, 23.2289983]}}, {"type": "Feature", "id": 4292039997, "properties": {"kind": "fuel", "name": "bharat petroleum CNG", "operator": ""}, "geometry": {"type": "Point", "coordinates": [72.4089456, 23.3721677]}}, {"type": "Feature", "id": 4292070490, "properties": {"kind": "fuel", "name": "indian oil", "operator": ""}, "geometry": {"type": "Point", "coordinates": [71.5901635, 22.5490542]}}, {"type": "Feature", "id": 4292071689, "properties": {"kind": "fuel", "name": "CNG", "operator": ""}, "geometry": {"type": "Point", "coordinates": [71.7231369, 22.5619694]}}, {"type": "Feature", "id": 4292071691, "properties": {"kind": "fuel", "name": "Auto gas LPG", "operator": ""}, "geometry": {"type": "Point", "coordinates": [72.3708948, 23.5694489]}}, {"type": "Feature", "id": 4292072289, "properties": {"kind": "fuel", "name": "bharat petroleum ", "operator": ""}, "geometry": {"type": "Point", "coordinates": [71.5904883, 22.5491652]}}, {"type": "Feature", "id": 4292072589, "properties": {"kind": "fuel", "name": "LPG", "operator": ""}, "geometry": {"type": "Point", "coordinates": [71.5906738, 22.5488501]}}, {"type": "Feature", "id": 4292072590, "properties": {"kind": "fuel", "name": "petrol pump", "operator": ""}, "geometry": {"type": "Point", "coordinates": [71.2800422, 22.4758421]}}, {"type": "Feature", "id": 4292072591, "properties": {"kind": "fuel", "name": "Hp petrol pump", "operator": ""}, "geometry": {"type": "Point", "coordinates": [71.2712573, 22.4701925]}}, {"type": "Feature", "id": 4294089193, "properties": {"kind": "fuel", "name": "Essar pump", "operator": ""}, "geometry": {"type": "Point", "coordinates": [72.4153677, 23.6184906]}}, {"type": "Feature", "id": 4294089198, "properties": {"kind": "fuel", "name": "LPG godown", "operator": ""}, "geometry": {"type": "Point", "coordinates": [72.3878042, 23.6279274]}}, {"type": "Feature", "id": 4294131095, "properties": {"kind": "fuel", "name": "Fuel ", "operator": ""}, "geometry": {"type": "Point", "coordinates": [72.3886301, 23.6228704]}}, {"type": "Feature", "id": 4294642592, "properties": {"kind": "fuel", "name": "CNG station  Mother", "operator": ""}, "geometry": {"type": "Point", "coordinates": [72.35461, 23.5685883]}}, {"type": "Feature", "id": 4295528891, "properties": {"kind": "fuel", "name": "Essar Petroleum", "operator": "Essar"}, "geometry": {"type": "Point", "coordinates": [72.1336914, 23.5790363]}}, {"type": "Feature", "id": 4296609766, "properties": {"kind": "fuel", "name": "", "operator": ""}, "geometry": {"type": "Point", "coordinates": [72.8897796, 20.2036239]}}, {"type": "Feature", "id": 4296617652, "properties": {"kind": "fuel", "name": "Hp petrol pump", "operator": ""}, "geometry": {"type": "Point", "coordinates": [72.3721747, 23.5678245]}}, {"type": "Feature", "id": 4296618078, "properties": {"kind": "fuel", "name": "indian oil", "operator": ""}, "geometry": {"type": "Point", "coordinates": [72.3690554, 23.5719249]}}, {"type": "Feature", "id": 4296805591, "properties": {"kind": "fuel", "name": "ONGC ", "operator": ""}, "geometry": {"type": "Point", "coordinates": [72.3812648, 23.6032273]}}, {"type": "Feature", "id": 4297338291, "properties": {"kind": "fuel", "name": "Indian Oil", "operator": ""}, "geometry": {"type": "Point", "coordinates": [72.401065, 23.5097785]}}, {"type": "Feature", "id": 4297344189, "properties": {"kind": "fuel", "name": "Reliance Petrol n LPG ", "operator": ""}, "geometry": {"type": "Point", "coordinates": [72.377235, 23.5880622]}}, {"type": "Feature", "id": 4297344190, "properties": {"kind": "fuel", "name": "Bharat petroleum", "operator": ""}, "geometry": {"type": "Point", "coordinates": [72.3935887, 23.4743981]}}, {"type": "Feature", "id": 4301915191, "properties": {"kind": "fuel", "name": "Bharat patrolium CNG", "operator": ""}, "geometry": {"type": "Point", "coordinates": [72.443245, 23.2763234]}}, {"type": "Feature", "id": 4312565715, "properties": {"kind": "fuel", "name": "C N G", "operator": ""}, "geometry": {"type": "Point", "coordinates": [73.1920393, 22.2033923]}}, {"type": "Feature", "id": 4315588383, "properties": {"kind": "fuel", "name": "HP PETROL PUMP - PAWAN PETROLEUM", "operator": ""}, "geometry": {"type": "Point", "coordinates": [69.6910504, 21.5535958]}}, {"type": "Feature", "id": 4323406798, "properties": {"kind": "fuel", "name": "Indian Oil", "operator": ""}, "geometry": {"type": "Point", "coordinates": [73.1987893, 22.3565808]}}, {"type": "Feature", "id": 4326504193, "properties": {"kind": "fuel", "name": "CNG Adani", "operator": ""}, "geometry": {"type": "Point", "coordinates": [72.5644029, 23.0135186]}}, {"type": "Feature", "id": 4326514789, "properties": {"kind": "fuel", "name": "", "operator": ""}, "geometry": {"type": "Point", "coordinates": [73.2226144, 22.2807547]}}, {"type": "Feature", "id": 4326820494, "properties": {"kind": "fuel", "name": "indian oil", "operator": ""}, "geometry": {"type": "Point", "coordinates": [70.853262, 22.325079]}}, {"type": "Feature", "id": 4326822991, "properties": {"kind": "fuel", "name": "Indian oil", "operator": ""}, "geometry": {"type": "Point", "coordinates": [71.0982238, 22.4203139]}}, {"type": "Feature", "id": 4326822992, "properties": {"kind": "fuel", "name": "Indian oil petroleum", "operator": ""}, "geometry": {"type": "Point", "coordinates": [70.9347934, 22.3554532]}}, {"type": "Feature", "id": 4326822995, "properties": {"kind": "fuel", "name": "Indian oil", "operator": ""}, "geometry": {"type": "Point", "coordinates": [71.4834169, 22.5379879]}}, {"type": "Feature", "id": 4326839990, "properties": {"kind": "fuel", "name": "Relience", "operator": ""}, "geometry": {"type": "Point", "coordinates": [71.1011652, 22.4196613]}}, {"type": "Feature", "id": 4326845390, "properties": {"kind": "fuel", "name": "indian oil", "operator": ""}, "geometry": {"type": "Point", "coordinates": [70.8528792, 22.325795]}}, {"type": "Feature", "id": 4326845589, "properties": {"kind": "fuel", "name": "Indian Oil", "operator": ""}, "geometry": {"type": "Point", "coordinates": [71.0855757, 22.4251278]}}, {"type": "Feature", "id": 4326845789, "properties": {"kind": "fuel", "name": "Hp petrol pump", "operator": ""}, "geometry": {"type": "Point", "coordinates": [70.9082668, 22.3405925]}}, {"type": "Feature", "id": 4326846290, "properties": {"kind": "fuel", "name": "HP petrol", "operator": ""}, "geometry": {"type": "Point", "coordinates": [70.8013046, 22.2978366]}}, {"type": "Feature", "id": 4330451290, "properties": {"kind": "fuel", "name": "HP", "operator": ""}, "geometry": {"type": "Point", "coordinates": [72.346942, 23.6194593]}}, {"type": "Feature", "id": 4330451789, "properties": {"kind": "fuel", "name": "indian oil", "operator": ""}, "geometry": {"type": "Point", "coordinates": [72.3501086, 23.5612877]}}, {"type": "Feature", "id": 4330452389, "properties": {"kind": "fuel", "name": "esaar", "operator": ""}, "geometry": {"type": "Point", "coordinates": [72.3290107, 23.5926757]}}, {"type": "Feature", "id": 4330586090, "properties": {"kind": "fuel", "name": "C N G", "operator": ""}, "geometry": {"type": "Point", "coordinates": [73.1916192, 22.2031026]}}, {"type": "Feature", "id": 4353492292, "properties": {"kind": "fuel", "name": "Bharat Petroleum", "operator": ""}, "geometry": {"type": "Point", "coordinates": [70.365145, 20.907849]}}, {"type": "Feature", "id": 4353500689, "properties": {"kind": "fuel", "name": "HP petrol pump", "operator": ""}, "geometry": {"type": "Point", "coordinates": [70.364917, 20.909591]}}, {"type": "Feature", "id": 4353502489, "properties": {"kind": "fuel", "name": "Sahyog Petroleum", "operator": "HP"}, "geometry": {"type": "Point", "coordinates": [70.365053, 20.90928]}}, {"type": "Feature", "id": 4358631802, "properties": {"kind": "fuel", "name": "", "operator": ""}, "geometry": {"type": "Point", "coordinates": [72.6431616, 23.0579511]}}, {"type": "Feature", "id": 4358646485, "properties": {"kind": "fuel", "name": "Cng Petrol pump", "operator": ""}, "geometry": {"type": "Point", "coordinates": [72.6319464, 23.0523451]}}, {"type": "Feature", "id": 4380156500, "properties": {"kind": "fuel", "name": "indian oil", "operator": ""}, "geometry": {"type": "Point", "coordinates": [72.322004, 23.2818516]}}, {"type": "Feature", "id": 4406716943, "properties": {"kind": "fuel", "name": "", "operator": ""}, "geometry": {"type": "Point", "coordinates": [72.8674633, 22.0008844]}}, {"type": "Feature", "id": 4412725295, "properties": {"kind": "fuel", "name": "Petrol CNG pump", "operator": ""}, "geometry": {"type": "Point", "coordinates": [72.6508243, 23.0219685]}}, {"type": "Feature", "id": 4424516791, "properties": {"kind": "fuel", "name": "Indian oil petrol pump", "operator": ""}, "geometry": {"type": "Point", "coordinates": [71.6234086, 22.7165984]}}, {"type": "Feature", "id": 4424519492, "properties": {"kind": "fuel", "name": "Esaar petrol pump", "operator": ""}, "geometry": {"type": "Point", "coordinates": [72.0319807, 23.4921781]}}, {"type": "Feature", "id": 4424519496, "properties": {"kind": "fuel", "name": "Gujarat Gas CNG pump", "operator": ""}, "geometry": {"type": "Point", "coordinates": [71.6055482, 22.7145446]}}, {"type": "Feature", "id": 4424519692, "properties": {"kind": "fuel", "name": "Gujarat gas CNG", "operator": ""}, "geometry": {"type": "Point", "coordinates": [71.7978884, 22.8604328]}}, {"type": "Feature", "id": 4424519693, "properties": {"kind": "fuel", "name": "Bharat petroleum petrol pump", "operator": ""}, "geometry": {"type": "Point", "coordinates": [71.7877883, 22.8537406]}}, {"type": "Feature", "id": 4424519792, "properties": {"kind": "fuel", "name": "Indian Oil petrol pump", "operator": ""}, "geometry": {"type": "Point", "coordinates": [71.5990388, 22.710952]}}, {"type": "Feature", "id": 4424522789, "properties": {"kind": "fuel", "name": "Bharat petroleum petrol pump", "operator": ""}, "geometry": {"type": "Point", "coordinates": [71.9743544, 22.9945755]}}, {"type": "Feature", "id": 4424522791, "properties": {"kind": "fuel", "name": "Vardhman petroleum", "operator": ""}, "geometry": {"type": "Point", "coordinates": [71.6771311, 22.7195908]}}, {"type": "Feature", "id": 4424523789, "properties": {"kind": "fuel", "name": "indian oil petrol pump", "operator": ""}, "geometry": {"type": "Point", "coordinates": [71.4619959, 22.6304455]}}, {"type": "Feature", "id": 4434576012, "properties": {"kind": "fuel", "name": "C R Sons Petrol Pump", "operator": ""}, "geometry": {"type": "Point", "coordinates": [72.8595234, 22.694693]}}, {"type": "Feature", "id": 4435495490, "properties": {"kind": "fuel", "name": "CNG pump Gspc", "operator": ""}, "geometry": {"type": "Point", "coordinates": [72.9288688, 22.5398438]}}, {"type": "Feature", "id": 4435502490, "properties": {"kind": "fuel", "name": "CNG Petrol pump", "operator": ""}, "geometry": {"type": "Point", "coordinates": [73.2024833, 22.3450417]}}, {"type": "Feature", "id": 4454457492, "properties": {"kind": "fuel", "name": "Indian oil", "operator": ""}, "geometry": {"type": "Point", "coordinates": [71.461949, 22.6307014]}}, {"type": "Feature", "id": 4456348289, "properties": {"kind": "fuel", "name": "CNG Indian oil petrol pump", "operator": ""}, "geometry": {"type": "Point", "coordinates": [70.7691974, 22.2841858]}}, {"type": "Feature", "id": 4456349389, "properties": {"kind": "fuel", "name": "CNG Indian oil petrol pump", "operator": ""}, "geometry": {"type": "Point", "coordinates": [70.7040292, 22.2585769]}}, {"type": "Feature", "id": 4456590193, "properties": {"kind": "fuel", "name": "CNG pump", "operator": ""}, "geometry": {"type": "Point", "coordinates": [71.8150878, 22.5743828]}}, {"type": "Feature", "id": 4456611890, "properties": {"kind": "fuel", "name": "CNG Hp petroleum", "operator": ""}, "geometry": {"type": "Point", "coordinates": [72.2063059, 22.6461786]}}, {"type": "Feature", "id": 4456612193, "properties": {"kind": "fuel", "name": "Bharat petroleum", "operator": ""}, "geometry": {"type": "Point", "coordinates": [71.8485038, 22.5763346]}}, {"type": "Feature", "id": 4456612391, "properties": {"kind": "fuel", "name": "Indian petroleum", "operator": ""}, "geometry": {"type": "Point", "coordinates": [71.8517836, 22.5745291]}}, {"type": "Feature", "id": 4456612491, "properties": {"kind": "fuel", "name": "Indian oil", "operator": ""}, "geometry": {"type": "Point", "coordinates": [71.8575066, 22.5747458]}}, {"type": "Feature", "id": 4456641891, "properties": {"kind": "fuel", "name": "HP petroleum", "operator": ""}, "geometry": {"type": "Point", "coordinates": [71.8345689, 22.5756039]}}, {"type": "Feature", "id": 4456642990, "properties": {"kind": "fuel", "name": "Essar pump", "operator": ""}, "geometry": {"type": "Point", "coordinates": [71.8190134, 22.5746475]}}, {"type": "Feature", "id": 4457370764, "properties": {"kind": "fuel", "name": "CNG", "operator": ""}, "geometry": {"type": "Point", "coordinates": [71.717619, 22.5640796]}}, {"type": "Feature", "id": 4476395495, "properties": {"kind": "fuel", "name": "CNG gas only", "operator": ""}, "geometry": {"type": "Point", "coordinates": [72.5295505, 23.210959]}}, {"type": "Feature", "id": 4483242065, "properties": {"kind": "fuel", "name": "Petrol pump Nava Naroda", "operator": ""}, "geometry": {"type": "Point", "coordinates": [72.6678593, 23.0797088]}}, {"type": "Feature", "id": 4483474713, "properties": {"kind": "fuel", "name": "CNG Bharat petroleum", "operator": ""}, "geometry": {"type": "Point", "coordinates": [72.5781297, 23.0400891]}}, {"type": "Feature", "id": 4510425631, "properties": {"kind": "fuel", "name": "Petrol pump", "operator": ""}, "geometry": {"type": "Point", "coordinates": [72.8563881, 22.69877]}}, {"type": "Feature", "id": 4510426327, "properties": {"kind": "fuel", "name": "Petrol Pump", "operator": ""}, "geometry": {"type": "Point", "coordinates": [72.856307, 22.6991279]}}, {"type": "Feature", "id": 4510434600, "properties": {"kind": "fuel", "name": "Chetak Petrol Pump", "operator": ""}, "geometry": {"type": "Point", "coordinates": [72.8666065, 22.6901919]}}, {"type": "Feature", "id": 4510471031, "properties": {"kind": "fuel", "name": "Petrol Pump", "operator": ""}, "geometry": {"type": "Point", "coordinates": [72.875181, 22.6945915]}}, {"type": "Feature", "id": 4523122585, "properties": {"kind": "fuel", "name": "petrol pump", "operator": ""}, "geometry": {"type": "Point", "coordinates": [72.4807265, 23.2564061]}}, {"type": "Feature", "id": 4535330089, "properties": {"kind": "fuel", "name": "IndianOil", "operator": ""}, "geometry": {"type": "Point", "coordinates": [73.6365483, 24.6943549]}}, {"type": "Feature", "id": 4678057691, "properties": {"kind": "fuel", "name": "CNG gujarat", "operator": ""}, "geometry": {"type": "Point", "coordinates": [73.1603384, 22.0797165]}}, {"type": "Feature", "id": 4702938089, "properties": {"kind": "fuel", "name": "", "operator": ""}, "geometry": {"type": "Point", "coordinates": [73.6937135, 24.5653033]}}, {"type": "Feature", "id": 4707863390, "properties": {"kind": "fuel", "name": "Cng petrol pump", "operator": ""}, "geometry": {"type": "Point", "coordinates": [72.9538973, 21.2988092]}}, {"type": "Feature", "id": 4709340899, "properties": {"kind": "fuel", "name": "Shivam petroliums", "operator": ""}, "geometry": {"type": "Point", "coordinates": [70.070294, 22.4730259]}}, {"type": "Feature", "id": 4731770043, "properties": {"kind": "fuel", "name": "Bharat Petroleum", "operator": ""}, "geometry": {"type": "Point", "coordinates": [72.8191981, 23.1697683]}}, {"type": "Feature", "id": 4741560485, "properties": {"kind": "fuel", "name": "Vande Mataram Essar Petroleum", "operator": ""}, "geometry": {"type": "Point", "coordinates": [72.3637258, 23.6107531]}}, {"type": "Feature", "id": 4741560486, "properties": {"kind": "fuel", "name": "MM Bharat Petroleum", "operator": ""}, "geometry": {"type": "Point", "coordinates": [72.3670598, 23.609766]}}, {"type": "Feature", "id": 4789797644, "properties": {"kind": "fuel", "name": "Reliance petrol pump", "operator": ""}, "geometry": {"type": "Point", "coordinates": [73.1148375, 22.4677223]}}, {"type": "Feature", "id": 4836569463, "properties": {"kind": "fuel", "name": "", "operator": ""}, "geometry": {"type": "Point", "coordinates": [69.5923673, 21.9153252]}}, {"type": "Feature", "id": 4841776284, "properties": {"kind": "fuel", "name": "Shiv Krupa", "operator": ""}, "geometry": {"type": "Point", "coordinates": [69.5903804, 21.7870404]}}, {"type": "Feature", "id": 4891804983, "properties": {"kind": "fuel", "name": "Bharat Petroleum", "operator": ""}, "geometry": {"type": "Point", "coordinates": [72.5234735, 23.076537]}}, {"type": "Feature", "id": 4945168222, "properties": {"kind": "fuel", "name": "Cng Vadodara", "operator": ""}, "geometry": {"type": "Point", "coordinates": [73.1648741, 22.3152894]}}, {"type": "Feature", "id": 4945175021, "properties": {"kind": "fuel", "name": "Cng adani", "operator": ""}, "geometry": {"type": "Point", "coordinates": [73.164572, 22.3153114]}}, {"type": "Feature", "id": 4965480451, "properties": {"kind": "fuel", "name": "", "operator": ""}, "geometry": {"type": "Point", "coordinates": [73.2742099, 21.0918627]}}, {"type": "Feature", "id": 5103466762, "properties": {"kind": "fuel", "name": "Petrol Pump", "operator": ""}, "geometry": {"type": "Point", "coordinates": [72.4358326, 24.1705027]}}, {"type": "Feature", "id": 5114228522, "properties": {"kind": "fuel", "name": "", "operator": ""}, "geometry": {"type": "Point", "coordinates": [73.3670049, 23.6829319]}}, {"type": "Feature", "id": 5240499331, "properties": {"kind": "fuel", "name": "", "operator": ""}, "geometry": {"type": "Point", "coordinates": [73.6777057, 24.2471267]}}, {"type": "Feature", "id": 5240499332, "properties": {"kind": "fuel", "name": "", "operator": ""}, "geometry": {"type": "Point", "coordinates": [73.7519783, 23.5776433]}}, {"type": "Feature", "id": 5261343721, "properties": {"kind": "fuel", "name": "CNG Bamanbore", "operator": ""}, "geometry": {"type": "Point", "coordinates": [71.0855406, 22.4254798]}}, {"type": "Feature", "id": 5286955825, "properties": {"kind": "fuel", "name": "CNG gas station", "operator": ""}, "geometry": {"type": "Point", "coordinates": [72.6862592, 23.0846729]}}, {"type": "Feature", "id": 5291486626, "properties": {"kind": "fuel", "name": "CNG -kabir petrolum", "operator": ""}, "geometry": {"type": "Point", "coordinates": [73.0527725, 21.8385453]}}, {"type": "Feature", "id": 5291854424, "properties": {"kind": "fuel", "name": "CNG stattion", "operator": ""}, "geometry": {"type": "Point", "coordinates": [72.49878, 22.9359318]}}, {"type": "Feature", "id": 5387295121, "properties": {"kind": "fuel", "name": "Cng and petrol pump", "operator": ""}, "geometry": {"type": "Point", "coordinates": [72.6734332, 23.0289447]}}, {"type": "Feature", "id": 5393262460, "properties": {"kind": "fuel", "name": "", "operator": ""}, "geometry": {"type": "Point", "coordinates": [70.3628123, 20.9117077]}}, {"type": "Feature", "id": 5497480682, "properties": {"kind": "fuel", "name": "", "operator": ""}, "geometry": {"type": "Point", "coordinates": [71.0163654, 22.5127778]}}, {"type": "Feature", "id": 5497481122, "properties": {"kind": "fuel", "name": "", "operator": ""}, "geometry": {"type": "Point", "coordinates": [69.8101822, 21.6596181]}}, {"type": "Feature", "id": 5497503687, "properties": {"kind": "fuel", "name": "", "operator": ""}, "geometry": {"type": "Point", "coordinates": [70.9525664, 22.6547302]}}, {"type": "Feature", "id": 5497538709, "properties": {"kind": "fuel", "name": "", "operator": ""}, "geometry": {"type": "Point", "coordinates": [70.8718935, 22.8121309]}}, {"type": "Feature", "id": 5498127438, "properties": {"kind": "fuel", "name": "", "operator": ""}, "geometry": {"type": "Point", "coordinates": [71.2686731, 23.7959058]}}, {"type": "Feature", "id": 5498162088, "properties": {"kind": "fuel", "name": "", "operator": ""}, "geometry": {"type": "Point", "coordinates": [71.9374202, 24.1003688]}}, {"type": "Feature", "id": 5527662484, "properties": {"kind": "fuel", "name": "", "operator": ""}, "geometry": {"type": "Point", "coordinates": [72.5658082, 23.0140063]}}, {"type": "Feature", "id": 5542340259, "properties": {"kind": "fuel", "name": "", "operator": ""}, "geometry": {"type": "Point", "coordinates": [69.83366, 22.3592529]}}, {"type": "Feature", "id": 5566618420, "properties": {"kind": "fuel", "name": "Naresh Desai CNG pump", "operator": ""}, "geometry": {"type": "Point", "coordinates": [72.9026894, 20.3215288]}}, {"type": "Feature", "id": 5698657522, "properties": {"kind": "fuel", "name": "Cng station", "operator": ""}, "geometry": {"type": "Point", "coordinates": [72.5882763, 23.1619162]}}, {"type": "Feature", "id": 5725206321, "properties": {"kind": "fuel", "name": "CNG pump Bharat Petroleum", "operator": ""}, "geometry": {"type": "Point", "coordinates": [73.1883648, 22.2343063]}}, {"type": "Feature", "id": 5745062118, "properties": {"kind": "fuel", "name": "Sheth petrolium", "operator": ""}, "geometry": {"type": "Point", "coordinates": [70.9375681, 22.5940222]}}, {"type": "Feature", "id": 5749135021, "properties": {"kind": "fuel", "name": "Gail Gas", "operator": ""}, "geometry": {"type": "Point", "coordinates": [73.1446714, 22.3864139]}}, {"type": "Feature", "id": 5753318022, "properties": {"kind": "fuel", "name": "Indian oil CNG n Petrol", "operator": ""}, "geometry": {"type": "Point", "coordinates": [72.4750283, 23.0292807]}}, {"type": "Feature", "id": 5778923741, "properties": {"kind": "fuel", "name": "BPCL petrol pump", "operator": ""}, "geometry": {"type": "Point", "coordinates": [69.1495405, 22.0679379]}}, {"type": "Feature", "id": 5949481884, "properties": {"kind": "fuel", "name": "", "operator": ""}, "geometry": {"type": "Point", "coordinates": [69.4799504, 23.1936732]}}, {"type": "Feature", "id": 6050496033, "properties": {"kind": "fuel", "name": "Hindustan Petroleum", "operator": ""}, "geometry": {"type": "Point", "coordinates": [73.0231987, 21.764947]}}, {"type": "Feature", "id": 6050496056, "properties": {"kind": "fuel", "name": "Indian Oil", "operator": ""}, "geometry": {"type": "Point", "coordinates": [73.0221905, 21.7655849]}}, {"type": "Feature", "id": 6053701991, "properties": {"kind": "fuel", "name": "Hindustan Petroleum", "operator": ""}, "geometry": {"type": "Point", "coordinates": [72.8853247, 24.5988767]}}, {"type": "Feature", "id": 6084626487, "properties": {"kind": "fuel", "name": "Bharat Petroleum", "operator": ""}, "geometry": {"type": "Point", "coordinates": [72.859674, 24.5673432]}}, {"type": "Feature", "id": 6088128504, "properties": {"kind": "fuel", "name": "Bharat Petroleum", "operator": ""}, "geometry": {"type": "Point", "coordinates": [72.9827049, 20.6993806]}}, {"type": "Feature", "id": 6176260999, "properties": {"kind": "fuel", "name": "ESSAR", "operator": ""}, "geometry": {"type": "Point", "coordinates": [70.459119, 22.7032531]}}, {"type": "Feature", "id": 6181546667, "properties": {"kind": "fuel", "name": "Gitanjali petrol pump", "operator": ""}, "geometry": {"type": "Point", "coordinates": [72.8478, 21.209261]}}, {"type": "Feature", "id": 6373851985, "properties": {"kind": "fuel", "name": "", "operator": ""}, "geometry": {"type": "Point", "coordinates": [72.9477052, 21.457657]}}, {"type": "Feature", "id": 6517896175, "properties": {"kind": "fuel", "name": "", "operator": ""}, "geometry": {"type": "Point", "coordinates": [72.6241863, 23.234272]}}, {"type": "Feature", "id": 6520979438, "properties": {"kind": "fuel", "name": "Kishan Petroleum", "operator": ""}, "geometry": {"type": "Point", "coordinates": [72.6271713, 23.1748208]}}, {"type": "Feature", "id": 6842759386, "properties": {"kind": "fuel", "name": "CNG pump", "operator": ""}, "geometry": {"type": "Point", "coordinates": [73.1916628, 22.3796541]}}, {"type": "Feature", "id": 6904308649, "properties": {"kind": "fuel", "name": "Bharat Petroleum", "operator": ""}, "geometry": {"type": "Point", "coordinates": [73.7206758, 24.5817936]}}, {"type": "Feature", "id": 6976899185, "properties": {"kind": "fuel", "name": "Indian Oil", "operator": ""}, "geometry": {"type": "Point", "coordinates": [73.7527257, 22.1409635]}}, {"type": "Feature", "id": 6976900485, "properties": {"kind": "fuel", "name": "Esser", "operator": ""}, "geometry": {"type": "Point", "coordinates": [73.7546265, 22.1463948]}}, {"type": "Feature", "id": 6976900585, "properties": {"kind": "fuel", "name": "Indian Oil", "operator": ""}, "geometry": {"type": "Point", "coordinates": [73.7242658, 22.27149]}}, {"type": "Feature", "id": 6983227453, "properties": {"kind": "fuel", "name": "HP Gas Station", "operator": ""}, "geometry": {"type": "Point", "coordinates": [72.9449234, 20.5112413]}}, {"type": "Feature", "id": 7017910395, "properties": {"kind": "fuel", "name": "Indian Oil", "operator": ""}, "geometry": {"type": "Point", "coordinates": [73.6920418, 24.590622]}}, {"type": "Feature", "id": 7100931277, "properties": {"kind": "fuel", "name": "Indian Oil", "operator": ""}, "geometry": {"type": "Point", "coordinates": [72.8056846, 21.1995812]}}, {"type": "Feature", "id": 7100949375, "properties": {"kind": "fuel", "name": "Indian Oil", "operator": ""}, "geometry": {"type": "Point", "coordinates": [72.7866731, 21.1690696]}}, {"type": "Feature", "id": 7100993026, "properties": {"kind": "fuel", "name": "Indian Oil", "operator": ""}, "geometry": {"type": "Point", "coordinates": [72.7835674, 21.1983103]}}, {"type": "Feature", "id": 7101013410, "properties": {"kind": "fuel", "name": "Indian Oil", "operator": ""}, "geometry": {"type": "Point", "coordinates": [72.802237, 21.1408996]}}, {"type": "Feature", "id": 7101013617, "properties": {"kind": "fuel", "name": "Indian Oil", "operator": ""}, "geometry": {"type": "Point", "coordinates": [72.7973527, 21.1605377]}}, {"type": "Feature", "id": 7101016356, "properties": {"kind": "fuel", "name": "Indian Oil", "operator": ""}, "geometry": {"type": "Point", "coordinates": [72.8400883, 21.1712419]}}, {"type": "Feature", "id": 7101017396, "properties": {"kind": "fuel", "name": "Indian Oil", "operator": ""}, "geometry": {"type": "Point", "coordinates": [72.8336081, 21.1800958]}}, {"type": "Feature", "id": 7101020483, "properties": {"kind": "fuel", "name": "Indian Oil", "operator": ""}, "geometry": {"type": "Point", "coordinates": [72.8527376, 21.1309425]}}, {"type": "Feature", "id": 7101040213, "properties": {"kind": "fuel", "name": "Indian Oil", "operator": ""}, "geometry": {"type": "Point", "coordinates": [72.8603336, 21.1121624]}}, {"type": "Feature", "id": 7101051790, "properties": {"kind": "fuel", "name": "Indian Oil", "operator": ""}, "geometry": {"type": "Point", "coordinates": [72.8273102, 21.173633]}}, {"type": "Feature", "id": 7101083908, "properties": {"kind": "fuel", "name": "Indian Oil", "operator": ""}, "geometry": {"type": "Point", "coordinates": [72.8890651, 21.1336833]}}, {"type": "Feature", "id": 7101097923, "properties": {"kind": "fuel", "name": "Indian Oil", "operator": ""}, "geometry": {"type": "Point", "coordinates": [72.8381246, 21.11089]}}, {"type": "Feature", "id": 7101114250, "properties": {"kind": "fuel", "name": "Indian Oil", "operator": ""}, "geometry": {"type": "Point", "coordinates": [72.8538531, 21.1939546]}}, {"type": "Feature", "id": 7101118596, "properties": {"kind": "fuel", "name": "Indian Oil", "operator": ""}, "geometry": {"type": "Point", "coordinates": [72.8717401, 21.1909032]}}, {"type": "Feature", "id": 7101149415, "properties": {"kind": "fuel", "name": "Indian Oil", "operator": ""}, "geometry": {"type": "Point", "coordinates": [72.94007, 21.2115591]}}, {"type": "Feature", "id": 7101151021, "properties": {"kind": "fuel", "name": "Indian Oil", "operator": ""}, "geometry": {"type": "Point", "coordinates": [72.8680366, 21.2174351]}}, {"type": "Feature", "id": 7101158158, "properties": {"kind": "fuel", "name": "Indian Oil", "operator": ""}, "geometry": {"type": "Point", "coordinates": [72.7420695, 21.1561601]}}, {"type": "Feature", "id": 7101162197, "properties": {"kind": "fuel", "name": "Indian Oil", "operator": ""}, "geometry": {"type": "Point", "coordinates": [72.8937965, 21.2270463]}}, {"type": "Feature", "id": 7101164116, "properties": {"kind": "fuel", "name": "Indian Oil", "operator": ""}, "geometry": {"type": "Point", "coordinates": [72.8653868, 21.0777146]}}, {"type": "Feature", "id": 7101170733, "properties": {"kind": "fuel", "name": "Indian Oil", "operator": ""}, "geometry": {"type": "Point", "coordinates": [72.9759796, 21.0919696]}}, {"type": "Feature", "id": 7101234640, "properties": {"kind": "fuel", "name": "Indian Oil", "operator": ""}, "geometry": {"type": "Point", "coordinates": [72.7908964, 21.1422766]}}, {"type": "Feature", "id": 7101234641, "properties": {"kind": "fuel", "name": "Indian Oil", "operator": ""}, "geometry": {"type": "Point", "coordinates": [72.7921732, 21.1422065]}}, {"type": "Feature", "id": 7101277942, "properties": {"kind": "fuel", "name": "Indian Oil", "operator": ""}, "geometry": {"type": "Point", "coordinates": [72.7213149, 21.1892898]}}, {"type": "Feature", "id": 7101293894, "properties": {"kind": "fuel", "name": "Indian Oil", "operator": ""}, "geometry": {"type": "Point", "coordinates": [72.8275525, 21.2030479]}}, {"type": "Feature", "id": 7101298516, "properties": {"kind": "fuel", "name": "Indian Oil", "operator": ""}, "geometry": {"type": "Point", "coordinates": [72.850699, 21.1708828]}}, {"type": "Feature", "id": 7101300029, "properties": {"kind": "fuel", "name": "Indian Oil", "operator": ""}, "geometry": {"type": "Point", "coordinates": [72.8154118, 21.175755]}}, {"type": "Feature", "id": 7101302584, "properties": {"kind": "fuel", "name": "Indian Oil", "operator": ""}, "geometry": {"type": "Point", "coordinates": [72.8425354, 21.1945446]}}, {"type": "Feature", "id": 7101304196, "properties": {"kind": "fuel", "name": "Indian Oil", "operator": ""}, "geometry": {"type": "Point", "coordinates": [72.8439827, 21.1787663]}}, {"type": "Feature", "id": 7101311089, "properties": {"kind": "fuel", "name": "Indian Oil", "operator": ""}, "geometry": {"type": "Point", "coordinates": [72.7970238, 21.194882]}}, {"type": "Feature", "id": 7101314602, "properties": {"kind": "fuel", "name": "Indian Oil", "operator": ""}, "geometry": {"type": "Point", "coordinates": [72.8437692, 21.1972955]}}, {"type": "Feature", "id": 7101340473, "properties": {"kind": "fuel", "name": "Indian Oil", "operator": ""}, "geometry": {"type": "Point", "coordinates": [72.8732923, 21.220858]}}, {"type": "Feature", "id": 7101346266, "properties": {"kind": "fuel", "name": "Indian Oil", "operator": ""}, "geometry": {"type": "Point", "coordinates": [72.9578308, 21.3494736]}}, {"type": "Feature", "id": 7104052880, "properties": {"kind": "fuel", "name": "Indian Oil", "operator": ""}, "geometry": {"type": "Point", "coordinates": [73.1975823, 22.3239565]}}, {"type": "Feature", "id": 7104053835, "properties": {"kind": "fuel", "name": "Indian Oil", "operator": ""}, "geometry": {"type": "Point", "coordinates": [73.134883, 22.3561238]}}, {"type": "Feature", "id": 7104071807, "properties": {"kind": "fuel", "name": "Indian Oil", "operator": ""}, "geometry": {"type": "Point", "coordinates": [73.1549782, 22.3213939]}}, {"type": "Feature", "id": 7104080218, "properties": {"kind": "fuel", "name": "Indian Oil", "operator": ""}, "geometry": {"type": "Point", "coordinates": [73.1533097, 22.335759]}}, {"type": "Feature", "id": 7104081356, "properties": {"kind": "fuel", "name": "Indian Oil", "operator": ""}, "geometry": {"type": "Point", "coordinates": [73.1418889, 22.3447274]}}, {"type": "Feature", "id": 7104106698, "properties": {"kind": "fuel", "name": "Indian Oil", "operator": ""}, "geometry": {"type": "Point", "coordinates": [73.1885379, 22.3239466]}}, {"type": "Feature", "id": 7104117696, "properties": {"kind": "fuel", "name": "Indian Oil", "operator": ""}, "geometry": {"type": "Point", "coordinates": [73.180105, 22.3344565]}}, {"type": "Feature", "id": 7104123186, "properties": {"kind": "fuel", "name": "Indian Oil", "operator": ""}, "geometry": {"type": "Point", "coordinates": [73.1825726, 22.3288592]}}, {"type": "Feature", "id": 7104139745, "properties": {"kind": "fuel", "name": "Indian Oil", "operator": ""}, "geometry": {"type": "Point", "coordinates": [73.2197376, 22.2990384]}}, {"type": "Feature", "id": 7104142919, "properties": {"kind": "fuel", "name": "Indian Oil", "operator": ""}, "geometry": {"type": "Point", "coordinates": [73.2279556, 22.3174358]}}, {"type": "Feature", "id": 7104143575, "properties": {"kind": "fuel", "name": "Indian Oil", "operator": ""}, "geometry": {"type": "Point", "coordinates": [73.2265719, 22.3024035]}}, {"type": "Feature", "id": 7104184235, "properties": {"kind": "fuel", "name": "Indian Oil", "operator": ""}, "geometry": {"type": "Point", "coordinates": [73.2116941, 22.3134845]}}, {"type": "Feature", "id": 7104185971, "properties": {"kind": "fuel", "name": "Indian Oil", "operator": ""}, "geometry": {"type": "Point", "coordinates": [73.1907895, 22.2716168]}}, {"type": "Feature", "id": 7104192978, "properties": {"kind": "fuel", "name": "Indian Oil", "operator": ""}, "geometry": {"type": "Point", "coordinates": [73.1610199, 22.2768734]}}, {"type": "Feature", "id": 7104200007, "properties": {"kind": "fuel", "name": "Indian Oil", "operator": ""}, "geometry": {"type": "Point", "coordinates": [73.1575476, 22.2949315]}}, {"type": "Feature", "id": 7104202078, "properties": {"kind": "fuel", "name": "Indian Oil", "operator": ""}, "geometry": {"type": "Point", "coordinates": [73.2026182, 22.3062586]}}, {"type": "Feature", "id": 7104222072, "properties": {"kind": "fuel", "name": "Indian Oil", "operator": ""}, "geometry": {"type": "Point", "coordinates": [73.1995871, 22.2605164]}}, {"type": "Feature", "id": 7104223204, "properties": {"kind": "fuel", "name": "Indian Oil", "operator": ""}, "geometry": {"type": "Point", "coordinates": [73.1974735, 22.2783903]}}, {"type": "Feature", "id": 7104224030, "properties": {"kind": "fuel", "name": "Indian Oil", "operator": ""}, "geometry": {"type": "Point", "coordinates": [73.17431, 22.3137865]}}, {"type": "Feature", "id": 7104249918, "properties": {"kind": "fuel", "name": "Indian Oil", "operator": ""}, "geometry": {"type": "Point", "coordinates": [73.1911221, 22.3259099]}}, {"type": "Feature", "id": 7104278988, "properties": {"kind": "fuel", "name": "Indian Oil", "operator": ""}, "geometry": {"type": "Point", "coordinates": [73.1851032, 22.309047]}}, {"type": "Feature", "id": 7104293723, "properties": {"kind": "fuel", "name": "Indian Oil", "operator": ""}, "geometry": {"type": "Point", "coordinates": [73.2440581, 22.2791821]}}, {"type": "Feature", "id": 7104355343, "properties": {"kind": "fuel", "name": "Indian Oil", "operator": ""}, "geometry": {"type": "Point", "coordinates": [73.2098975, 22.3601653]}}, {"type": "Feature", "id": 7104366034, "properties": {"kind": "fuel", "name": "Indian Oil", "operator": ""}, "geometry": {"type": "Point", "coordinates": [73.2104928, 22.2912468]}}, {"type": "Feature", "id": 7104368027, "properties": {"kind": "fuel", "name": "Indian Oil", "operator": ""}, "geometry": {"type": "Point", "coordinates": [73.2837334, 22.2295735]}}, {"type": "Feature", "id": 7104374418, "properties": {"kind": "fuel", "name": "Indian Oil", "operator": ""}, "geometry": {"type": "Point", "coordinates": [73.2600226, 22.2524337]}}, {"type": "Feature", "id": 7104375122, "properties": {"kind": "fuel", "name": "Indian Oil", "operator": ""}, "geometry": {"type": "Point", "coordinates": [73.2212915, 22.346874]}}, {"type": "Feature", "id": 7104405027, "properties": {"kind": "fuel", "name": "Indian Oil", "operator": ""}, "geometry": {"type": "Point", "coordinates": [73.1712952, 22.3625714]}}, {"type": "Feature", "id": 7104430092, "properties": {"kind": "fuel", "name": "Indian Oil", "operator": ""}, "geometry": {"type": "Point", "coordinates": [73.1907144, 22.3829248]}}, {"type": "Feature", "id": 7104434953, "properties": {"kind": "fuel", "name": "Indian Oil", "operator": ""}, "geometry": {"type": "Point", "coordinates": [73.1382289, 22.3992927]}}, {"type": "Feature", "id": 7106150589, "properties": {"kind": "fuel", "name": "Indian Oil", "operator": ""}, "geometry": {"type": "Point", "coordinates": [73.0622491, 20.7791834]}}, {"type": "Feature", "id": 7244850267, "properties": {"kind": "fuel", "name": "India Oil", "operator": ""}, "geometry": {"type": "Point", "coordinates": [73.6606101, 24.6676105]}}, {"type": "Feature", "id": 7244850849, "properties": {"kind": "fuel", "name": "", "operator": ""}, "geometry": {"type": "Point", "coordinates": [73.7158688, 24.6390064]}}, {"type": "Feature", "id": 7244850957, "properties": {"kind": "fuel", "name": "Indian Oil", "operator": ""}, "geometry": {"type": "Point", "coordinates": [73.6366055, 24.6938829]}}, {"type": "Feature", "id": 7244856025, "properties": {"kind": "fuel", "name": "", "operator": ""}, "geometry": {"type": "Point", "coordinates": [73.6985864, 24.6072566]}}, {"type": "Feature", "id": 7244862319, "properties": {"kind": "fuel", "name": "", "operator": ""}, "geometry": {"type": "Point", "coordinates": [73.6236553, 24.7513164]}}, {"type": "Feature", "id": 7244866408, "properties": {"kind": "fuel", "name": "Bahrat", "operator": ""}, "geometry": {"type": "Point", "coordinates": [73.6285437, 24.7224025]}}, {"type": "Feature", "id": 7550895754, "properties": {"kind": "fuel", "name": "Puna Kumbhariya Petrol Pump", "operator": ""}, "geometry": {"type": "Point", "coordinates": [72.8581855, 21.1913592]}}, {"type": "Feature", "id": 7728527138, "properties": {"kind": "fuel", "name": "Gandhi Petrol Pump", "operator": ""}, "geometry": {"type": "Point", "coordinates": [73.4620088, 22.6091626]}}, {"type": "Feature", "id": 7740296614, "properties": {"kind": "fuel", "name": "Essar Petrol Pump", "operator": ""}, "geometry": {"type": "Point", "coordinates": [73.1316273, 22.2905919]}}, {"type": "Feature", "id": 7980839090, "properties": {"kind": "fuel", "name": "", "operator": ""}, "geometry": {"type": "Point", "coordinates": [74.2309701, 21.5645573]}}, {"type": "Feature", "id": 8018178652, "properties": {"kind": "fuel", "name": "", "operator": "Pokar Petroleum"}, "geometry": {"type": "Point", "coordinates": [73.4570687, 22.5561174]}}, {"type": "Feature", "id": 8018178653, "properties": {"kind": "fuel", "name": "", "operator": ""}, "geometry": {"type": "Point", "coordinates": [73.4541159, 22.5729473]}}, {"type": "Feature", "id": 8018178656, "properties": {"kind": "fuel", "name": "Shakti Petroleum", "operator": ""}, "geometry": {"type": "Point", "coordinates": [73.4609931, 22.6088021]}}, {"type": "Feature", "id": 8229696178, "properties": {"kind": "fuel", "name": "Bharat Petrolium", "operator": ""}, "geometry": {"type": "Point", "coordinates": [71.8515775, 22.4695684]}}, {"type": "Feature", "id": 8229721821, "properties": {"kind": "fuel", "name": "Indian Oil", "operator": ""}, "geometry": {"type": "Point", "coordinates": [71.9812021, 22.3942125]}}, {"type": "Feature", "id": 8229740157, "properties": {"kind": "fuel", "name": "Reliance", "operator": ""}, "geometry": {"type": "Point", "coordinates": [71.9786842, 22.3868901]}}, {"type": "Feature", "id": 8574120779, "properties": {"kind": "fuel", "name": "Hindustan Petroleum", "operator": ""}, "geometry": {"type": "Point", "coordinates": [73.7696582, 24.5946681]}}, {"type": "Feature", "id": 8694181658, "properties": {"kind": "fuel", "name": "", "operator": ""}, "geometry": {"type": "Point", "coordinates": [72.7456444, 22.8655534]}}, {"type": "Feature", "id": 8811887149, "properties": {"kind": "fuel", "name": "", "operator": ""}, "geometry": {"type": "Point", "coordinates": [73.033779, 24.7924752]}}, {"type": "Feature", "id": 8813282757, "properties": {"kind": "fuel", "name": "Petrol Pump", "operator": ""}, "geometry": {"type": "Point", "coordinates": [72.9288451, 24.658578]}}, {"type": "Feature", "id": 9057293350, "properties": {"kind": "fuel", "name": "", "operator": ""}, "geometry": {"type": "Point", "coordinates": [73.7265873, 22.2560052]}}, {"type": "Feature", "id": 9103974659, "properties": {"kind": "fuel", "name": "", "operator": ""}, "geometry": {"type": "Point", "coordinates": [73.3369374, 22.1760818]}}, {"type": "Feature", "id": 9103974660, "properties": {"kind": "fuel", "name": "", "operator": ""}, "geometry": {"type": "Point", "coordinates": [73.3383644, 22.1756198]}}, {"type": "Feature", "id": 9103974676, "properties": {"kind": "fuel", "name": "", "operator": ""}, "geometry": {"type": "Point", "coordinates": [73.3838385, 22.1469935]}}, {"type": "Feature", "id": 9103974677, "properties": {"kind": "fuel", "name": "", "operator": ""}, "geometry": {"type": "Point", "coordinates": [73.3839136, 22.1476195]}}, {"type": "Feature", "id": 9103989129, "properties": {"kind": "fuel", "name": "PremShanti", "operator": ""}, "geometry": {"type": "Point", "coordinates": [73.3238724, 22.1888405]}}, {"type": "Feature", "id": 9104327720, "properties": {"kind": "fuel", "name": "", "operator": ""}, "geometry": {"type": "Point", "coordinates": [73.2820433, 22.2298855]}}, {"type": "Feature", "id": 9111500457, "properties": {"kind": "fuel", "name": "", "operator": ""}, "geometry": {"type": "Point", "coordinates": [72.9242823, 21.8503337]}}, {"type": "Feature", "id": 9237294501, "properties": {"kind": "fuel", "name": "Reliance", "operator": ""}, "geometry": {"type": "Point", "coordinates": [73.8396317, 24.618218]}}, {"type": "Feature", "id": 9555401543, "properties": {"kind": "fuel", "name": "HP", "operator": ""}, "geometry": {"type": "Point", "coordinates": [74.3748211, 20.9863411]}}, {"type": "Feature", "id": 9837829194, "properties": {"kind": "fuel", "name": "HP", "operator": ""}, "geometry": {"type": "Point", "coordinates": [72.9417834, 22.57237]}}, {"type": "Feature", "id": 9863132918, "properties": {"kind": "fuel", "name": "\u092d\u093e\u0930\u0924 \u092a\u0947\u091f\u094d\u0930\u094b\u0932 \u092a\u092e\u094d\u092a", "operator": ""}, "geometry": {"type": "Point", "coordinates": [72.9306491, 20.476228]}}, {"type": "Feature", "id": 9865762817, "properties": {"kind": "fuel", "name": "", "operator": ""}, "geometry": {"type": "Point", "coordinates": [73.4419006, 22.4638786]}}, {"type": "Feature", "id": 9903992871, "properties": {"kind": "fuel", "name": "Bharat Petroleum", "operator": ""}, "geometry": {"type": "Point", "coordinates": [73.0059503, 20.8136996]}}, {"type": "Feature", "id": 9903992876, "properties": {"kind": "fuel", "name": "Gandevi Petrol Pump", "operator": ""}, "geometry": {"type": "Point", "coordinates": [72.9962242, 20.8181323]}}, {"type": "Feature", "id": 9907101512, "properties": {"kind": "fuel", "name": "", "operator": ""}, "geometry": {"type": "Point", "coordinates": [70.0363814, 22.4623253]}}, {"type": "Feature", "id": 9907101513, "properties": {"kind": "fuel", "name": "Nyara Petrolium", "operator": ""}, "geometry": {"type": "Point", "coordinates": [70.0409996, 22.4509949]}}, {"type": "Feature", "id": 9907101514, "properties": {"kind": "fuel", "name": "Nyara Petrolium", "operator": ""}, "geometry": {"type": "Point", "coordinates": [70.0373471, 22.4448542]}}, {"type": "Feature", "id": 9914012330, "properties": {"kind": "fuel", "name": "", "operator": ""}, "geometry": {"type": "Point", "coordinates": [69.451202, 22.1952872]}}, {"type": "Feature", "id": 9919659480, "properties": {"kind": "fuel", "name": "", "operator": ""}, "geometry": {"type": "Point", "coordinates": [70.0497733, 22.4613715]}}, {"type": "Feature", "id": 9927350354, "properties": {"kind": "fuel", "name": "Reliance petrol", "operator": ""}, "geometry": {"type": "Point", "coordinates": [68.9952437, 22.3961349]}}, {"type": "Feature", "id": 10011904201, "properties": {"kind": "fuel", "name": "Bharat Petroleum", "operator": ""}, "geometry": {"type": "Point", "coordinates": [70.5497844, 22.6176194]}}, {"type": "Feature", "id": 10011904215, "properties": {"kind": "fuel", "name": "Indian Oil", "operator": ""}, "geometry": {"type": "Point", "coordinates": [70.5222282, 22.6203834]}}, {"type": "Feature", "id": 10011904225, "properties": {"kind": "fuel", "name": "Bharat Petroleum", "operator": ""}, "geometry": {"type": "Point", "coordinates": [70.5289063, 22.6197799]}}, {"type": "Feature", "id": 10013500372, "properties": {"kind": "fuel", "name": "Indian Oil", "operator": ""}, "geometry": {"type": "Point", "coordinates": [70.7493636, 22.6457986]}}, {"type": "Feature", "id": 10016141784, "properties": {"kind": "fuel", "name": "Rudra Bharat Petroleum", "operator": ""}, "geometry": {"type": "Point", "coordinates": [70.475916, 22.6083199]}}, {"type": "Feature", "id": 10083296037, "properties": {"kind": "fuel", "name": "HP", "operator": ""}, "geometry": {"type": "Point", "coordinates": [70.7463184, 22.561009]}}, {"type": "Feature", "id": 10083296047, "properties": {"kind": "fuel", "name": "Bharat Petroleum", "operator": ""}, "geometry": {"type": "Point", "coordinates": [70.7474364, 22.5591745]}}, {"type": "Feature", "id": 10166906844, "properties": {"kind": "fuel", "name": "Dharti Petrol Pump HP", "operator": ""}, "geometry": {"type": "Point", "coordinates": [70.6734082, 22.5980274]}}, {"type": "Feature", "id": 10166906845, "properties": {"kind": "fuel", "name": "Aakash Bharat Petroleum", "operator": ""}, "geometry": {"type": "Point", "coordinates": [70.6725974, 22.5977274]}}, {"type": "Feature", "id": 10177874699, "properties": {"kind": "fuel", "name": "Shell", "operator": ""}, "geometry": {"type": "Point", "coordinates": [72.6269447, 22.9871408]}}, {"type": "Feature", "id": 10203915673, "properties": {"kind": "fuel", "name": "Bharat Petroleum", "operator": ""}, "geometry": {"type": "Point", "coordinates": [70.4191455, 22.5618013]}}, {"type": "Feature", "id": 10206724898, "properties": {"kind": "fuel", "name": "Jay Ramapeer Petroleum", "operator": "Open"}, "geometry": {"type": "Point", "coordinates": [72.1619628, 21.7537304]}}, {"type": "Feature", "id": 10233313279, "properties": {"kind": "fuel", "name": "Reliance Petrol pump", "operator": ""}, "geometry": {"type": "Point", "coordinates": [70.7504128, 22.6652617]}}, {"type": "Feature", "id": 10233313280, "properties": {"kind": "fuel", "name": "Gulab Bharat Petroleum And CNG", "operator": ""}, "geometry": {"type": "Point", "coordinates": [70.752164, 22.6707854]}}, {"type": "Feature", "id": 10233313281, "properties": {"kind": "fuel", "name": "Shri Siddhi Vinayak Auto Fuels", "operator": ""}, "geometry": {"type": "Point", "coordinates": [70.7511557, 22.6675339]}}, {"type": "Feature", "id": 10233313282, "properties": {"kind": "fuel", "name": "Raviraj Petroleum", "operator": ""}, "geometry": {"type": "Point", "coordinates": [70.7560359, 22.6796229]}}, {"type": "Feature", "id": 10233313283, "properties": {"kind": "fuel", "name": "Meera Peroleum Bharat Petroleum", "operator": ""}, "geometry": {"type": "Point", "coordinates": [70.756488, 22.6810076]}}, {"type": "Feature", "id": 10233313284, "properties": {"kind": "fuel", "name": "Aradhana Nayara Gas Station", "operator": ""}, "geometry": {"type": "Point", "coordinates": [70.7194788, 22.6291623]}}, {"type": "Feature", "id": 10281303248, "properties": {"kind": "fuel", "name": "Petrol Pump", "operator": ""}, "geometry": {"type": "Point", "coordinates": [72.9974213, 20.6257286]}}, {"type": "Feature", "id": 10281312609, "properties": {"kind": "fuel", "name": "HP Petrol Pump", "operator": ""}, "geometry": {"type": "Point", "coordinates": [73.0132201, 20.6264183]}}, {"type": "Feature", "id": 10688399730, "properties": {"kind": "fuel", "name": "ESSAR Petrol station Susen Tarsali Ring Road", "operator": ""}, "geometry": {"type": "Point", "coordinates": [73.2071562, 22.2568283]}}, {"type": "Feature", "id": 10790141203, "properties": {"kind": "fuel", "name": "Gujarat Gas CNG Station", "operator": ""}, "geometry": {"type": "Point", "coordinates": [70.8597454, 22.8434432]}}, {"type": "Feature", "id": 10878771655, "properties": {"kind": "fuel", "name": "", "operator": ""}, "geometry": {"type": "Point", "coordinates": [73.6300465, 24.7702815]}}, {"type": "Feature", "id": 10880997845, "properties": {"kind": "fuel", "name": "HP Petrol Pump", "operator": ""}, "geometry": {"type": "Point", "coordinates": [73.6946725, 24.5904019]}}, {"type": "Feature", "id": 10881007779, "properties": {"kind": "fuel", "name": "", "operator": ""}, "geometry": {"type": "Point", "coordinates": [73.6963798, 24.5815598]}}, {"type": "Feature", "id": 11199315592, "properties": {"kind": "fuel", "name": "Essar Pump", "operator": ""}, "geometry": {"type": "Point", "coordinates": [70.9662099, 22.6336427]}}, {"type": "Feature", "id": 11328060786, "properties": {"kind": "fuel", "name": "", "operator": ""}, "geometry": {"type": "Point", "coordinates": [74.4325881, 23.5352895]}}, {"type": "Feature", "id": 11423611665, "properties": {"kind": "fuel", "name": "Indian Oil station", "operator": ""}, "geometry": {"type": "Point", "coordinates": [68.9789811, 22.3649261]}}, {"type": "Feature", "id": 11690585028, "properties": {"kind": "fuel", "name": "Reliance Petroleum", "operator": ""}, "geometry": {"type": "Point", "coordinates": [69.6328799, 23.2231207]}}, {"type": "Feature", "id": 11690660465, "properties": {"kind": "fuel", "name": "Indian oil", "operator": ""}, "geometry": {"type": "Point", "coordinates": [69.6286109, 23.2188584]}}, {"type": "Feature", "id": 11690678490, "properties": {"kind": "fuel", "name": "Bharat petroleum", "operator": ""}, "geometry": {"type": "Point", "coordinates": [69.6266634, 23.218351]}}, {"type": "Feature", "id": 11691627921, "properties": {"kind": "fuel", "name": "Indian Oil Petrol Pump", "operator": ""}, "geometry": {"type": "Point", "coordinates": [70.6886877, 20.8099665]}}, {"type": "Feature", "id": 11691688670, "properties": {"kind": "fuel", "name": "HP", "operator": ""}, "geometry": {"type": "Point", "coordinates": [70.6940006, 20.8009884]}}, {"type": "Feature", "id": 11903580950, "properties": {"kind": "fuel", "name": "Indian Oil", "operator": ""}, "geometry": {"type": "Point", "coordinates": [70.7415993, 22.2699212]}}, {"type": "Feature", "id": 12129479158, "properties": {"kind": "fuel", "name": "Indian Oil", "operator": ""}, "geometry": {"type": "Point", "coordinates": [72.4576817, 22.8671793]}}, {"type": "Feature", "id": 12153808450, "properties": {"kind": "fuel", "name": "", "operator": ""}, "geometry": {"type": "Point", "coordinates": [69.0867471, 22.3377142]}}, {"type": "Feature", "id": 12172304019, "properties": {"kind": "fuel", "name": "", "operator": ""}, "geometry": {"type": "Point", "coordinates": [69.0229995, 22.4211289]}}, {"type": "Feature", "id": 12184187025, "properties": {"kind": "fuel", "name": "", "operator": ""}, "geometry": {"type": "Point", "coordinates": [68.9621286, 22.2814843]}}, {"type": "Feature", "id": 12204729120, "properties": {"kind": "fuel", "name": "Divyapath Petroleum Guragadh", "operator": ""}, "geometry": {"type": "Point", "coordinates": [69.1893117, 22.194839]}}, {"type": "Feature", "id": 12250721599, "properties": {"kind": "fuel", "name": "Jio BP petrol bunk", "operator": ""}, "geometry": {"type": "Point", "coordinates": [71.4663263, 21.0088358]}}, {"type": "Feature", "id": 12424701811, "properties": {"kind": "fuel", "name": "Bharat Petroleum", "operator": ""}, "geometry": {"type": "Point", "coordinates": [73.6998616, 24.5748236]}}, {"type": "Feature", "id": 12484734426, "properties": {"kind": "fuel", "name": "IndianOil", "operator": ""}, "geometry": {"type": "Point", "coordinates": [72.7925107, 21.1429632]}}, {"type": "Feature", "id": 12526081066, "properties": {"kind": "fuel", "name": "Indian Oil", "operator": ""}, "geometry": {"type": "Point", "coordinates": [72.5562557, 23.0575051]}}, {"type": "Feature", "id": 12584857660, "properties": {"kind": "fuel", "name": "Indian Oil", "operator": ""}, "geometry": {"type": "Point", "coordinates": [72.8073493, 22.8609899]}}, {"type": "Feature", "id": 12592780365, "properties": {"kind": "fuel", "name": "HP", "operator": ""}, "geometry": {"type": "Point", "coordinates": [72.1628706, 21.753759]}}, {"type": "Feature", "id": 12592780366, "properties": {"kind": "fuel", "name": "Bharat Petroleum", "operator": ""}, "geometry": {"type": "Point", "coordinates": [72.1608346, 21.7546548]}}, {"type": "Feature", "id": 12592981557, "properties": {"kind": "fuel", "name": "Gujarat Gas CNG Station", "operator": ""}, "geometry": {"type": "Point", "coordinates": [72.1332163, 21.7502621]}}, {"type": "Feature", "id": 12593080336, "properties": {"kind": "fuel", "name": "Nayara", "operator": ""}, "geometry": {"type": "Point", "coordinates": [72.160567, 21.7378688]}}, {"type": "Feature", "id": 12593526540, "properties": {"kind": "fuel", "name": "Indian Oil", "operator": ""}, "geometry": {"type": "Point", "coordinates": [72.8525075, 21.1328918]}}, {"type": "Feature", "id": 12593687395, "properties": {"kind": "fuel", "name": "Reliance", "operator": ""}, "geometry": {"type": "Point", "coordinates": [72.8271521, 21.1704388]}}, {"type": "Feature", "id": 12595648600, "properties": {"kind": "fuel", "name": "bharat petroleum, banswara", "operator": ""}, "geometry": {"type": "Point", "coordinates": [74.4269864, 23.5517849]}}, {"type": "Feature", "id": 12595680268, "properties": {"kind": "fuel", "name": "reliance petroleum, banswara", "operator": ""}, "geometry": {"type": "Point", "coordinates": [74.432612, 23.5561777]}}, {"type": "Feature", "id": 12595797115, "properties": {"kind": "fuel", "name": "bharat petroleum, banswara", "operator": ""}, "geometry": {"type": "Point", "coordinates": [74.4403652, 23.545198]}}, {"type": "Feature", "id": 12595847329, "properties": {"kind": "fuel", "name": "hindustan petroleum, sumitlal, banswara", "operator": ""}, "geometry": {"type": "Point", "coordinates": [74.4402898, 23.5446057]}}, {"type": "Feature", "id": 13121232395, "properties": {"kind": "fuel", "name": "sai kripa fuels petrol pump", "operator": ""}, "geometry": {"type": "Point", "coordinates": [73.7042789, 24.5914804]}}, {"type": "Feature", "id": 13149521937, "properties": {"kind": "fuel", "name": "Pioneer Petrol Pump", "operator": ""}, "geometry": {"type": "Point", "coordinates": [73.2627442, 22.3282563]}}, {"type": "Feature", "id": 13272162304, "properties": {"kind": "fuel", "name": "Indian Oil Petrol Pump", "operator": ""}, "geometry": {"type": "Point", "coordinates": [69.9427699, 22.4319381]}}, {"type": "Feature", "id": 13384628794, "properties": {"kind": "fuel", "name": "Bharat Petroleum", "operator": ""}, "geometry": {"type": "Point", "coordinates": [71.7851384, 24.7558705]}}, {"type": "Feature", "id": 13384657165, "properties": {"kind": "fuel", "name": "Nayara", "operator": ""}, "geometry": {"type": "Point", "coordinates": [71.7836704, 24.7559949]}}, {"type": "Feature", "id": 14019778403, "properties": {"kind": "fuel", "name": "Indian petrol pump", "operator": ""}, "geometry": {"type": "Point", "coordinates": [72.3891499, 23.2821146]}}, {"type": "Feature", "id": 14040767084, "properties": {"kind": "fuel", "name": "Tulsi Hindustan Petroleum", "operator": ""}, "geometry": {"type": "Point", "coordinates": [72.3890984, 23.2821025]}}, {"type": "Feature", "id": 14067660532, "properties": {"kind": "fuel", "name": "Bharat Petroleum", "operator": ""}, "geometry": {"type": "Point", "coordinates": [72.5594082, 23.0203023]}}, {"type": "Feature", "id": 14090335145, "properties": {"kind": "fuel", "name": "Gujarat Gas CNG Station", "operator": ""}, "geometry": {"type": "Point", "coordinates": [72.6876809, 23.1835434]}}, {"type": "Feature", "id": 14094105401, "properties": {"kind": "fuel", "name": "Esaar Petrol Pump", "operator": ""}, "geometry": {"type": "Point", "coordinates": [74.3960595, 24.666099]}}, {"type": "Feature", "id": 14094107301, "properties": {"kind": "fuel", "name": "Bharat Petroleum, Petrol Pump -Sanwaliya Filling Station", "operator": ""}, "geometry": {"type": "Point", "coordinates": [74.3983935, 24.6770124]}}, {"type": "Feature", "id": 14101571531, "properties": {"kind": "fuel", "name": "IndianOil", "operator": "\u0ab5\u0abf\u0aa8\u0aaf \u0a95\u0abf\u0ab8\u0abe\u0aa8 \u0a95\u0acb\u0ab0\u0acd\u0aaa\u0acb\u0ab0\u0ac7\u0ab6\u0aa8"}, "geometry": {"type": "Point", "coordinates": [72.7807384, 23.3393229]}}]}