{"type": "FeatureCollection", "features": [{"type": "Feature", "id": "node/316792152", "properties": {"name": "", "operator": "", "district": "", "kind": "toll_booth"}, "geometry": {"type": "Point", "coordinates": [73.236888, 22.353324]}}, {"type": "Feature", "id": "node/316920256", "properties": {"name": "", "operator": "", "district": "", "kind": "toll_booth"}, "geometry": {"type": "Point", "coordinates": [73.070736, 22.453211]}}, {"type": "Feature", "id": "node/320660408", "properties": {"name": "", "operator": "", "district": "", "kind": "toll_booth"}, "geometry": {"type": "Point", "coordinates": [73.149321, 22.413794]}}, {"type": "Feature", "id": "node/320660477", "properties": {"name": "", "operator": "", "district": "", "kind": "toll_booth"}, "geometry": {"type": "Point", "coordinates": [73.149186, 22.413646]}}, {"type": "Feature", "id": "node/323157821", "properties": {"name": "", "operator": "", "district": "", "kind": "toll_booth"}, "geometry": {"type": "Point", "coordinates": [72.348888, 23.00629]}}, {"type": "Feature", "id": "node/349126518", "properties": {"name": "", "operator": "", "district": "", "kind": "toll_booth"}, "geometry": {"type": "Point", "coordinates": [72.917069, 20.435033]}}, {"type": "Feature", "id": "node/440615944", "properties": {"name": "", "operator": "", "district": "", "kind": "toll_booth"}, "geometry": {"type": "Point", "coordinates": [72.663728, 22.983806]}}, {"type": "Feature", "id": "node/444525149", "properties": {"name": "", "operator": "", "district": "", "kind": "toll_booth"}, "geometry": {"type": "Point", "coordinates": [72.8285, 23.410199]}}, {"type": "Feature", "id": "node/450162256", "properties": {"name": "", "operator": "", "district": "", "kind": "toll_booth"}, "geometry": {"type": "Point", "coordinates": [70.928094, 23.037087]}}, {"type": "Feature", "id": "node/450170304", "properties": {"name": "", "operator": "", "district": "", "kind": "toll_booth"}, "geometry": {"type": "Point", "coordinates": [70.490561, 23.30826]}}, {"type": "Feature", "id": "node/510160093", "properties": {"name": "", "operator": "", "district": "", "kind": "toll_booth"}, "geometry": {"type": "Point", "coordinates": [73.051962, 20.885591]}}, {"type": "Feature", "id": "node/510196647", "properties": {"name": "", "operator": "", "district": "", "kind": "toll_booth"}, "geometry": {"type": "Point", "coordinates": [73.114716, 22.014533]}}, {"type": "Feature", "id": "node/510197010", "properties": {"name": "", "operator": "", "district": "", "kind": "toll_booth"}, "geometry": {"type": "Point", "coordinates": [73.060795, 21.702092]}}, {"type": "Feature", "id": "node/510317580", "properties": {"name": "", "operator": "", "district": "", "kind": "toll_booth"}, "geometry": {"type": "Point", "coordinates": [71.784835, 23.071945]}}, {"type": "Feature", "id": "node/616562964", "properties": {"name": "Makhel", "operator": "", "district": "", "kind": "toll_booth"}, "geometry": {"type": "Point", "coordinates": [70.942617, 23.490462]}}, {"type": "Feature", "id": "node/778608566", "properties": {"name": "", "operator": "", "district": "", "kind": "toll_booth"}, "geometry": {"type": "Point", "coordinates": [72.658633, 22.968772]}}, {"type": "Feature", "id": "node/778608571", "properties": {"name": "", "operator": "", "district": "", "kind": "toll_booth"}, "geometry": {"type": "Point", "coordinates": [72.663868, 22.983773]}}, {"type": "Feature", "id": "node/778708294", "properties": {"name": "", "operator": "", "district": "", "kind": "toll_booth"}, "geometry": {"type": "Point", "coordinates": [72.560323, 23.186527]}}, {"type": "Feature", "id": "node/780268564", "properties": {"name": "", "operator": "", "district": "", "kind": "toll_booth"}, "geometry": {"type": "Point", "coordinates": [72.560208, 23.186382]}}, {"type": "Feature", "id": "node/836659569", "properties": {"name": "", "operator": "", "district": "", "kind": "toll_booth"}, "geometry": {"type": "Point", "coordinates": [73.62778, 23.993653]}}, {"type": "Feature", "id": "node/836660893", "properties": {"name": "", "operator": "", "district": "", "kind": "toll_booth"}, "geometry": {"type": "Point", "coordinates": [73.254315, 23.616176]}}, {"type": "Feature", "id": "node/836663546", "properties": {"name": "", "operator": "", "district": "", "kind": "toll_booth"}, "geometry": {"type": "Point", "coordinates": [73.396443, 23.719672]}}, {"type": "Feature", "id": "node/836663829", "properties": {"name": "Narayanpura", "operator": "", "district": "", "kind": "toll_booth"}, "geometry": {"type": "Point", "coordinates": [74.231759, 24.613684]}}, {"type": "Feature", "id": "node/1068792670", "properties": {"name": "", "operator": "", "district": "", "kind": "toll_booth"}, "geometry": {"type": "Point", "coordinates": [72.661897, 22.968226]}}, {"type": "Feature", "id": "node/1068792708", "properties": {"name": "", "operator": "", "district": "", "kind": "toll_booth"}, "geometry": {"type": "Point", "coordinates": [72.659696, 22.9726]}}, {"type": "Feature", "id": "node/1068792762", "properties": {"name": "", "operator": "", "district": "", "kind": "toll_booth"}, "geometry": {"type": "Point", "coordinates": [72.662101, 22.97006]}}, {"type": "Feature", "id": "node/1185821056", "properties": {"name": "", "operator": "", "district": "", "kind": "toll_booth"}, "geometry": {"type": "Point", "coordinates": [72.917293, 20.43499]}}, {"type": "Feature", "id": "node/1185821061", "properties": {"name": "", "operator": "", "district": "", "kind": "toll_booth"}, "geometry": {"type": "Point", "coordinates": [72.884588, 20.261455]}}, {"type": "Feature", "id": "node/1236660893", "properties": {"name": "", "operator": "", "district": "", "kind": "toll_booth"}, "geometry": {"type": "Point", "coordinates": [70.721988, 21.284486]}}, {"type": "Feature", "id": "node/1236660897", "properties": {"name": "", "operator": "", "district": "", "kind": "toll_booth"}, "geometry": {"type": "Point", "coordinates": [70.635683, 21.234565]}}, {"type": "Feature", "id": "node/1240959513", "properties": {"name": "", "operator": "", "district": "", "kind": "toll_booth"}, "geometry": {"type": "Point", "coordinates": [70.628783, 21.217276]}}, {"type": "Feature", "id": "node/1240966173", "properties": {"name": "041", "operator": "", "district": "", "kind": "toll_booth"}, "geometry": {"type": "Point", "coordinates": [70.829644, 22.311575]}}, {"type": "Feature", "id": "node/1240966178", "properties": {"name": "", "operator": "", "district": "", "kind": "toll_booth"}, "geometry": {"type": "Point", "coordinates": [70.626755, 21.186687]}}, {"type": "Feature", "id": "node/1306536414", "properties": {"name": "Mevad", "operator": "", "district": "", "kind": "toll_booth"}, "geometry": {"type": "Point", "coordinates": [72.388176, 23.527395]}}, {"type": "Feature", "id": "node/1315968816", "properties": {"name": "", "operator": "", "district": "", "kind": "toll_booth"}, "geometry": {"type": "Point", "coordinates": [72.642832, 23.115418]}}, {"type": "Feature", "id": "node/1315970141", "properties": {"name": "", "operator": "", "district": "", "kind": "toll_booth"}, "geometry": {"type": "Point", "coordinates": [72.592588, 23.12858]}}, {"type": "Feature", "id": "node/1448720414", "properties": {"name": "", "operator": "", "district": "", "kind": "toll_booth"}, "geometry": {"type": "Point", "coordinates": [72.592505, 23.128439]}}, {"type": "Feature", "id": "node/1568095068", "properties": {"name": "", "operator": "", "district": "", "kind": "toll_booth"}, "geometry": {"type": "Point", "coordinates": [70.955624, 22.647969]}}, {"type": "Feature", "id": "node/1672995438", "properties": {"name": "", "operator": "", "district": "", "kind": "toll_booth"}, "geometry": {"type": "Point", "coordinates": [74.210682, 20.325218]}}, {"type": "Feature", "id": "node/1836933156", "properties": {"name": "", "operator": "", "district": "", "kind": "toll_booth"}, "geometry": {"type": "Point", "coordinates": [69.717798, 22.816951]}}, {"type": "Feature", "id": "node/1837764310", "properties": {"name": "", "operator": "", "district": "", "kind": "toll_booth"}, "geometry": {"type": "Point", "coordinates": [73.627913, 23.993516]}}, {"type": "Feature", "id": "node/1842375552", "properties": {"name": "Narayanpura", "operator": "", "district": "", "kind": "toll_booth"}, "geometry": {"type": "Point", "coordinates": [74.231852, 24.613503]}}, {"type": "Feature", "id": "node/1842377288", "properties": {"name": "", "operator": "", "district": "", "kind": "toll_booth"}, "geometry": {"type": "Point", "coordinates": [73.093838, 24.71242]}}, {"type": "Feature", "id": "node/1842925982", "properties": {"name": "Khemana", "operator": "", "district": "", "kind": "toll_booth"}, "geometry": {"type": "Point", "coordinates": [72.462684, 24.24138]}}, {"type": "Feature", "id": "node/1855478562", "properties": {"name": "", "operator": "", "district": "", "kind": "toll_booth"}, "geometry": {"type": "Point", "coordinates": [72.42353, 22.506628]}}, {"type": "Feature", "id": "node/1863934716", "properties": {"name": "", "operator": "", "district": "", "kind": "toll_booth"}, "geometry": {"type": "Point", "coordinates": [73.760717, 24.79981]}}, {"type": "Feature", "id": "node/1875945306", "properties": {"name": "", "operator": "", "district": "", "kind": "toll_booth"}, "geometry": {"type": "Point", "coordinates": [72.740959, 22.716058]}}, {"type": "Feature", "id": "node/1875974969", "properties": {"name": "", "operator": "", "district": "", "kind": "toll_booth"}, "geometry": {"type": "Point", "coordinates": [72.741015, 22.716218]}}, {"type": "Feature", "id": "node/1877437719", "properties": {"name": "", "operator": "", "district": "", "kind": "toll_booth"}, "geometry": {"type": "Point", "coordinates": [72.642829, 23.115236]}}, {"type": "Feature", "id": "node/1904541501", "properties": {"name": "Makhel", "operator": "", "district": "", "kind": "toll_booth"}, "geometry": {"type": "Point", "coordinates": [70.942768, 23.490319]}}, {"type": "Feature", "id": "node/1905176823", "properties": {"name": "", "operator": "", "district": "", "kind": "toll_booth"}, "geometry": {"type": "Point", "coordinates": [73.254329, 23.616066]}}, {"type": "Feature", "id": "node/1905944784", "properties": {"name": "", "operator": "", "district": "", "kind": "toll_booth"}, "geometry": {"type": "Point", "coordinates": [72.828648, 23.410139]}}, {"type": "Feature", "id": "node/2257292411", "properties": {"name": "Khemana", "operator": "", "district": "", "kind": "toll_booth"}, "geometry": {"type": "Point", "coordinates": [72.462783, 24.24132]}}, {"type": "Feature", "id": "node/2258682708", "properties": {"name": "Varahi", "operator": "", "district": "", "kind": "toll_booth"}, "geometry": {"type": "Point", "coordinates": [71.427634, 23.79116]}}, {"type": "Feature", "id": "node/2258682715", "properties": {"name": "Varahi", "operator": "", "district": "", "kind": "toll_booth"}, "geometry": {"type": "Point", "coordinates": [71.427629, 23.791305]}}, {"type": "Feature", "id": "node/2261532063", "properties": {"name": "Malera", "operator": "", "district": "", "kind": "toll_booth"}, "geometry": {"type": "Point", "coordinates": [73.093689, 24.712354]}}, {"type": "Feature", "id": "node/2261532064", "properties": {"name": "Malera", "operator": "", "district": "", "kind": "toll_booth"}, "geometry": {"type": "Point", "coordinates": [73.093836, 24.712426]}}, {"type": "Feature", "id": "node/2261532325", "properties": {"name": "Gogunda (Jaswantgarh)", "operator": "", "district": "", "kind": "toll_booth"}, "geometry": {"type": "Point", "coordinates": [73.523942, 24.766098]}}, {"type": "Feature", "id": "node/2261532327", "properties": {"name": "Gogunda (Jaswantgarh)", "operator": "", "district": "", "kind": "toll_booth"}, "geometry": {"type": "Point", "coordinates": [73.524075, 24.766155]}}, {"type": "Feature", "id": "node/2269081498", "properties": {"name": "", "operator": "", "district": "", "kind": "toll_booth"}, "geometry": {"type": "Point", "coordinates": [74.210751, 20.324987]}}, {"type": "Feature", "id": "node/2269109237", "properties": {"name": "Pimpalgaon", "operator": "", "district": "", "kind": "toll_booth"}, "geometry": {"type": "Point", "coordinates": [73.976331, 20.141919]}}, {"type": "Feature", "id": "node/2271183451", "properties": {"name": "", "operator": "", "district": "", "kind": "toll_booth"}, "geometry": {"type": "Point", "coordinates": [71.372714, 23.001291]}}, {"type": "Feature", "id": "node/2271183455", "properties": {"name": "", "operator": "", "district": "", "kind": "toll_booth"}, "geometry": {"type": "Point", "coordinates": [71.37271, 23.001519]}}, {"type": "Feature", "id": "node/2289976841", "properties": {"name": "", "operator": "", "district": "", "kind": "toll_booth"}, "geometry": {"type": "Point", "coordinates": [73.052349, 20.885751]}}, {"type": "Feature", "id": "node/2289980981", "properties": {"name": "", "operator": "", "district": "", "kind": "toll_booth"}, "geometry": {"type": "Point", "coordinates": [72.954249, 21.303052]}}, {"type": "Feature", "id": "node/2289980982", "properties": {"name": "", "operator": "", "district": "", "kind": "toll_booth"}, "geometry": {"type": "Point", "coordinates": [72.954, 21.303094]}}, {"type": "Feature", "id": "node/2290013368", "properties": {"name": "", "operator": "", "district": "", "kind": "toll_booth"}, "geometry": {"type": "Point", "coordinates": [73.115443, 22.014785]}}, {"type": "Feature", "id": "node/2293897943", "properties": {"name": "", "operator": "", "district": "", "kind": "toll_booth"}, "geometry": {"type": "Point", "coordinates": [72.578472, 24.595592]}}, {"type": "Feature", "id": "node/2313654595", "properties": {"name": "", "operator": "", "district": "", "kind": "toll_booth"}, "geometry": {"type": "Point", "coordinates": [73.618, 23.013137]}}, {"type": "Feature", "id": "node/2313654600", "properties": {"name": "", "operator": "", "district": "", "kind": "toll_booth"}, "geometry": {"type": "Point", "coordinates": [73.618249, 23.013307]}}, {"type": "Feature", "id": "node/2313655800", "properties": {"name": "", "operator": "", "district": "", "kind": "toll_booth"}, "geometry": {"type": "Point", "coordinates": [73.515369, 23.364234]}}, {"type": "Feature", "id": "node/2313655806", "properties": {"name": "", "operator": "", "district": "", "kind": "toll_booth"}, "geometry": {"type": "Point", "coordinates": [73.515549, 23.364467]}}, {"type": "Feature", "id": "node/2313656975", "properties": {"name": "", "operator": "", "district": "", "kind": "toll_booth"}, "geometry": {"type": "Point", "coordinates": [73.303244, 23.505088]}}, {"type": "Feature", "id": "node/2313656977", "properties": {"name": "", "operator": "", "district": "", "kind": "toll_booth"}, "geometry": {"type": "Point", "coordinates": [73.30356, 23.505162]}}, {"type": "Feature", "id": "node/2314927679", "properties": {"name": "", "operator": "", "district": "", "kind": "toll_booth"}, "geometry": {"type": "Point", "coordinates": [73.519671, 22.647998]}}, {"type": "Feature", "id": "node/2314927681", "properties": {"name": "", "operator": "", "district": "", "kind": "toll_booth"}, "geometry": {"type": "Point", "coordinates": [73.519297, 22.648274]}}, {"type": "Feature", "id": "node/2324350694", "properties": {"name": "", "operator": "", "district": "", "kind": "toll_booth"}, "geometry": {"type": "Point", "coordinates": [73.23699, 22.353188]}}, {"type": "Feature", "id": "node/2324351087", "properties": {"name": "", "operator": "", "district": "", "kind": "toll_booth"}, "geometry": {"type": "Point", "coordinates": [73.465582, 22.489779]}}, {"type": "Feature", "id": "node/2326312573", "properties": {"name": "Vanana", "operator": "", "district": "", "kind": "toll_booth"}, "geometry": {"type": "Point", "coordinates": [69.709598, 21.66481]}}, {"type": "Feature", "id": "node/2326312580", "properties": {"name": "Vanana", "operator": "", "district": "", "kind": "toll_booth"}, "geometry": {"type": "Point", "coordinates": [69.709455, 21.665002]}}, {"type": "Feature", "id": "node/2326476983", "properties": {"name": "Dhumiyani", "operator": "", "district": "", "kind": "toll_booth"}, "geometry": {"type": "Point", "coordinates": [70.326826, 21.751303]}}, {"type": "Feature", "id": "node/2326477015", "properties": {"name": "Dhumiyani", "operator": "", "district": "", "kind": "toll_booth"}, "geometry": {"type": "Point", "coordinates": [70.326762, 21.751553]}}, {"type": "Feature", "id": "node/2326478348", "properties": {"name": "Bharudi", "operator": "", "district": "", "kind": "toll_booth"}, "geometry": {"type": "Point", "coordinates": [70.664019, 21.805272]}}, {"type": "Feature", "id": "node/2326478356", "properties": {"name": "Bharudi", "operator": "", "district": "", "kind": "toll_booth"}, "geometry": {"type": "Point", "coordinates": [70.663858, 21.805376]}}, {"type": "Feature", "id": "node/2326479995", "properties": {"name": "Pithadiya", "operator": "", "district": "", "kind": "toll_booth"}, "geometry": {"type": "Point", "coordinates": [70.78093, 22.082603]}}, {"type": "Feature", "id": "node/2326479999", "properties": {"name": "Pithadiya", "operator": "", "district": "", "kind": "toll_booth"}, "geometry": {"type": "Point", "coordinates": [70.78119, 22.082624]}}, {"type": "Feature", "id": "node/2337814505", "properties": {"name": "", "operator": "", "district": "", "kind": "toll_booth"}, "geometry": {"type": "Point", "coordinates": [70.490659, 23.308636]}}, {"type": "Feature", "id": "node/2337820984", "properties": {"name": "Surajbari", "operator": "", "district": "", "kind": "toll_booth"}, "geometry": {"type": "Point", "coordinates": [70.689485, 23.233628]}}, {"type": "Feature", "id": "node/2337820985", "properties": {"name": "Surajbari", "operator": "", "district": "", "kind": "toll_booth"}, "geometry": {"type": "Point", "coordinates": [70.689641, 23.233791]}}, {"type": "Feature", "id": "node/2347573688", "properties": {"name": "", "operator": "", "district": "", "kind": "toll_booth"}, "geometry": {"type": "Point", "coordinates": [72.179348, 22.630694]}}, {"type": "Feature", "id": "node/2347573691", "properties": {"name": "", "operator": "", "district": "", "kind": "toll_booth"}, "geometry": {"type": "Point", "coordinates": [72.179236, 22.630797]}}, {"type": "Feature", "id": "node/2382058621", "properties": {"name": "Bhildi", "operator": "", "district": "", "kind": "toll_booth"}, "geometry": {"type": "Point", "coordinates": [71.977174, 24.143772]}}, {"type": "Feature", "id": "node/2382058622", "properties": {"name": "Bhildi", "operator": "", "district": "", "kind": "toll_booth"}, "geometry": {"type": "Point", "coordinates": [71.977077, 24.14387]}}, {"type": "Feature", "id": "node/2382614754", "properties": {"name": "", "operator": "", "district": "", "kind": "toll_booth"}, "geometry": {"type": "Point", "coordinates": [71.784812, 23.071572]}}, {"type": "Feature", "id": "node/2382624450", "properties": {"name": "", "operator": "", "district": "", "kind": "toll_booth"}, "geometry": {"type": "Point", "coordinates": [70.928258, 23.037259]}}, {"type": "Feature", "id": "node/3227458797", "properties": {"name": "", "operator": "", "district": "", "kind": "toll_booth"}, "geometry": {"type": "Point", "coordinates": [72.686224, 23.096242]}}, {"type": "Feature", "id": "node/3227458798", "properties": {"name": "", "operator": "", "district": "", "kind": "toll_booth"}, "geometry": {"type": "Point", "coordinates": [72.686331, 23.096262]}}, {"type": "Feature", "id": "node/3306683258", "properties": {"name": "", "operator": "", "district": "", "kind": "toll_booth"}, "geometry": {"type": "Point", "coordinates": [72.650317, 22.975715]}}, {"type": "Feature", "id": "node/3306683259", "properties": {"name": "", "operator": "", "district": "", "kind": "toll_booth"}, "geometry": {"type": "Point", "coordinates": [72.650473, 22.975882]}}, {"type": "Feature", "id": "node/3625824978", "properties": {"name": "", "operator": "", "district": "", "kind": "toll_booth"}, "geometry": {"type": "Point", "coordinates": [73.880005, 20.001645]}}, {"type": "Feature", "id": "node/3625824983", "properties": {"name": "", "operator": "", "district": "", "kind": "toll_booth"}, "geometry": {"type": "Point", "coordinates": [73.880001, 20.001784]}}, {"type": "Feature", "id": "node/3656677738", "properties": {"name": "", "operator": "", "district": "", "kind": "toll_booth"}, "geometry": {"type": "Point", "coordinates": [72.957354, 22.912758]}}, {"type": "Feature", "id": "node/3656677739", "properties": {"name": "", "operator": "", "district": "", "kind": "toll_booth"}, "geometry": {"type": "Point", "coordinates": [72.95746, 22.912838]}}, {"type": "Feature", "id": "node/4169528557", "properties": {"name": "", "operator": "", "district": "", "kind": "toll_booth"}, "geometry": {"type": "Point", "coordinates": [69.80245, 22.93507]}}, {"type": "Feature", "id": "node/4169528558", "properties": {"name": "", "operator": "", "district": "", "kind": "toll_booth"}, "geometry": {"type": "Point", "coordinates": [69.802335, 22.935214]}}, {"type": "Feature", "id": "node/4712854259", "properties": {"name": "", "operator": "", "district": "", "kind": "toll_booth"}, "geometry": {"type": "Point", "coordinates": [72.945199, 23.592949]}}, {"type": "Feature", "id": "node/5246332690", "properties": {"name": "", "operator": "", "district": "", "kind": "toll_booth"}, "geometry": {"type": "Point", "coordinates": [69.680303, 22.752491]}}, {"type": "Feature", "id": "node/5338903806", "properties": {"name": "", "operator": "", "district": "", "kind": "toll_booth"}, "geometry": {"type": "Point", "coordinates": [72.922458, 21.090407]}}, {"type": "Feature", "id": "node/5338903807", "properties": {"name": "", "operator": "", "district": "", "kind": "toll_booth"}, "geometry": {"type": "Point", "coordinates": [72.922523, 21.090569]}}, {"type": "Feature", "id": "node/5339749822", "properties": {"name": "", "operator": "", "district": "", "kind": "toll_booth"}, "geometry": {"type": "Point", "coordinates": [73.533293, 22.792398]}}, {"type": "Feature", "id": "node/5339749831", "properties": {"name": "", "operator": "", "district": "", "kind": "toll_booth"}, "geometry": {"type": "Point", "coordinates": [73.533234, 22.792157]}}, {"type": "Feature", "id": "node/5393663610", "properties": {"name": "", "operator": "", "district": "", "kind": "toll_booth"}, "geometry": {"type": "Point", "coordinates": [70.334454, 20.961291]}}, {"type": "Feature", "id": "node/5456719221", "properties": {"name": "", "operator": "", "district": "", "kind": "toll_booth"}, "geometry": {"type": "Point", "coordinates": [73.070424, 22.45333]}}, {"type": "Feature", "id": "node/5457291048", "properties": {"name": "", "operator": "", "district": "", "kind": "toll_booth"}, "geometry": {"type": "Point", "coordinates": [73.478442, 21.134888]}}, {"type": "Feature", "id": "node/5457291087", "properties": {"name": "", "operator": "", "district": "", "kind": "toll_booth"}, "geometry": {"type": "Point", "coordinates": [73.478373, 21.135071]}}, {"type": "Feature", "id": "node/5496822934", "properties": {"name": "", "operator": "", "district": "", "kind": "toll_booth"}, "geometry": {"type": "Point", "coordinates": [73.740338, 21.162158]}}, {"type": "Feature", "id": "node/5496822935", "properties": {"name": "", "operator": "", "district": "", "kind": "toll_booth"}, "geometry": {"type": "Point", "coordinates": [73.740499, 21.163929]}}, {"type": "Feature", "id": "node/5497480821", "properties": {"name": "Vaghasia", "operator": "", "district": "", "kind": "toll_booth"}, "geometry": {"type": "Point", "coordinates": [71.08884, 22.423109]}}, {"type": "Feature", "id": "node/5497480822", "properties": {"name": "Vaghasia", "operator": "", "district": "", "kind": "toll_booth"}, "geometry": {"type": "Point", "coordinates": [71.088786, 22.423027]}}, {"type": "Feature", "id": "node/5497503688", "properties": {"name": "", "operator": "", "district": "", "kind": "toll_booth"}, "geometry": {"type": "Point", "coordinates": [70.955485, 22.64789]}}, {"type": "Feature", "id": "node/5498126482", "properties": {"name": "Bhalgam", "operator": "", "district": "", "kind": "toll_booth"}, "geometry": {"type": "Point", "coordinates": [71.788145, 23.920511]}}, {"type": "Feature", "id": "node/5498126483", "properties": {"name": "Bhalgam", "operator": "", "district": "", "kind": "toll_booth"}, "geometry": {"type": "Point", "coordinates": [71.788287, 23.92046]}}, {"type": "Feature", "id": "node/5498323664", "properties": {"name": "Undavariya/ Sirohi", "operator": "", "district": "", "kind": "toll_booth"}, "geometry": {"type": "Point", "coordinates": [72.907027, 24.633633]}}, {"type": "Feature", "id": "node/5498323665", "properties": {"name": "Undavariya/ Sirohi", "operator": "", "district": "", "kind": "toll_booth"}, "geometry": {"type": "Point", "coordinates": [72.907085, 24.63352]}}, {"type": "Feature", "id": "node/5524084379", "properties": {"name": "Pimpalgaon", "operator": "", "district": "", "kind": "toll_booth"}, "geometry": {"type": "Point", "coordinates": [73.976563, 20.141544]}}, {"type": "Feature", "id": "node/6034846562", "properties": {"name": "", "operator": "", "district": "", "kind": "toll_booth"}, "geometry": {"type": "Point", "coordinates": [70.334288, 20.961189]}}, {"type": "Feature", "id": "node/6035070986", "properties": {"name": "", "operator": "", "district": "", "kind": "toll_booth"}, "geometry": {"type": "Point", "coordinates": [70.295197, 21.424944]}}, {"type": "Feature", "id": "node/6035071005", "properties": {"name": "", "operator": "", "district": "", "kind": "toll_booth"}, "geometry": {"type": "Point", "coordinates": [70.29532, 21.424849]}}, {"type": "Feature", "id": "node/6037455643", "properties": {"name": "", "operator": "", "district": "", "kind": "toll_booth"}, "geometry": {"type": "Point", "coordinates": [74.151034, 23.025727]}}, {"type": "Feature", "id": "node/6104156853", "properties": {"name": "", "operator": "", "district": "", "kind": "toll_booth"}, "geometry": {"type": "Point", "coordinates": [74.047331, 24.172509]}}, {"type": "Feature", "id": "node/6254837190", "properties": {"name": "", "operator": "", "district": "", "kind": "toll_booth"}, "geometry": {"type": "Point", "coordinates": [73.760963, 24.799828]}}, {"type": "Feature", "id": "node/6409380853", "properties": {"name": "", "operator": "", "district": "", "kind": "toll_booth"}, "geometry": {"type": "Point", "coordinates": [69.914103, 22.4273]}}, {"type": "Feature", "id": "node/6409380854", "properties": {"name": "", "operator": "", "district": "", "kind": "toll_booth"}, "geometry": {"type": "Point", "coordinates": [69.914106, 22.427158]}}, {"type": "Feature", "id": "node/6755670719", "properties": {"name": "", "operator": "", "district": "", "kind": "toll_booth"}, "geometry": {"type": "Point", "coordinates": [70.349287, 22.550571]}}, {"type": "Feature", "id": "node/6755670720", "properties": {"name": "", "operator": "", "district": "", "kind": "toll_booth"}, "geometry": {"type": "Point", "coordinates": [70.349337, 22.550486]}}, {"type": "Feature", "id": "node/7091117974", "properties": {"name": "", "operator": "", "district": "", "kind": "toll_booth"}, "geometry": {"type": "Point", "coordinates": [73.061099, 21.702372]}}, {"type": "Feature", "id": "node/7890910111", "properties": {"name": "", "operator": "", "district": "", "kind": "toll_booth"}, "geometry": {"type": "Point", "coordinates": [73.030471, 21.108335]}}, {"type": "Feature", "id": "node/7890910159", "properties": {"name": "", "operator": "", "district": "", "kind": "toll_booth"}, "geometry": {"type": "Point", "coordinates": [73.030363, 21.108628]}}, {"type": "Feature", "id": "node/8972686426", "properties": {"name": "", "operator": "", "district": "", "kind": "toll_booth"}, "geometry": {"type": "Point", "coordinates": [72.519754, 22.934685]}}, {"type": "Feature", "id": "node/8972686427", "properties": {"name": "", "operator": "", "district": "", "kind": "toll_booth"}, "geometry": {"type": "Point", "coordinates": [72.519773, 22.934877]}}, {"type": "Feature", "id": "node/8973346586", "properties": {"name": "", "operator": "", "district": "", "kind": "toll_booth"}, "geometry": {"type": "Point", "coordinates": [72.884958, 20.263631]}}, {"type": "Feature", "id": "node/8973346590", "properties": {"name": "", "operator": "", "district": "", "kind": "toll_booth"}, "geometry": {"type": "Point", "coordinates": [73.394465, 23.717281]}}, {"type": "Feature", "id": "node/9057059707", "properties": {"name": "", "operator": "", "district": "", "kind": "toll_booth"}, "geometry": {"type": "Point", "coordinates": [73.652137, 21.924689]}}, {"type": "Feature", "id": "node/9057134621", "properties": {"name": "", "operator": "", "district": "", "kind": "toll_booth"}, "geometry": {"type": "Point", "coordinates": [73.651826, 21.922753]}}, {"type": "Feature", "id": "node/9062229716", "properties": {"name": "", "operator": "", "district": "", "kind": "toll_booth"}, "geometry": {"type": "Point", "coordinates": [73.897809, 21.534698]}}, {"type": "Feature", "id": "node/9062252017", "properties": {"name": "", "operator": "", "district": "", "kind": "toll_booth"}, "geometry": {"type": "Point", "coordinates": [73.89982, 21.53464]}}, {"type": "Feature", "id": "node/9095043197", "properties": {"name": "", "operator": "", "district": "", "kind": "toll_booth"}, "geometry": {"type": "Point", "coordinates": [69.910034, 21.318219]}}, {"type": "Feature", "id": "node/9319424525", "properties": {"name": "", "operator": "", "district": "", "kind": "toll_booth"}, "geometry": {"type": "Point", "coordinates": [72.346228, 23.008367]}}, {"type": "Feature", "id": "node/9689036128", "properties": {"name": "", "operator": "", "district": "", "kind": "toll_booth"}, "geometry": {"type": "Point", "coordinates": [73.743906, 24.488859]}}, {"type": "Feature", "id": "node/9926353286", "properties": {"name": "", "operator": "", "district": "", "kind": "toll_booth"}, "geometry": {"type": "Point", "coordinates": [69.138115, 22.077566]}}, {"type": "Feature", "id": "node/9926353287", "properties": {"name": "", "operator": "", "district": "", "kind": "toll_booth"}, "geometry": {"type": "Point", "coordinates": [69.138216, 22.077677]}}, {"type": "Feature", "id": "node/10733061714", "properties": {"name": "", "operator": "", "district": "", "kind": "toll_booth"}, "geometry": {"type": "Point", "coordinates": [73.104519, 22.259821]}}, {"type": "Feature", "id": "node/10733061742", "properties": {"name": "", "operator": "", "district": "", "kind": "toll_booth"}, "geometry": {"type": "Point", "coordinates": [73.104298, 22.25989]}}, {"type": "Feature", "id": "node/10733061752", "properties": {"name": "", "operator": "", "district": "", "kind": "toll_booth"}, "geometry": {"type": "Point", "coordinates": [73.109726, 22.261424]}}, {"type": "Feature", "id": "node/10733061798", "properties": {"name": "", "operator": "", "district": "", "kind": "toll_booth"}, "geometry": {"type": "Point", "coordinates": [73.106394, 22.255849]}}, {"type": "Feature", "id": "node/10733275395", "properties": {"name": "", "operator": "", "district": "", "kind": "toll_booth"}, "geometry": {"type": "Point", "coordinates": [73.081918, 22.434641]}}, {"type": "Feature", "id": "node/10733282744", "properties": {"name": "", "operator": "", "district": "", "kind": "toll_booth"}, "geometry": {"type": "Point", "coordinates": [73.118936, 22.456563]}}, {"type": "Feature", "id": "node/10733294213", "properties": {"name": "", "operator": "", "district": "", "kind": "toll_booth"}, "geometry": {"type": "Point", "coordinates": [73.086302, 22.434363]}}, {"type": "Feature", "id": "node/10733294228", "properties": {"name": "", "operator": "", "district": "", "kind": "toll_booth"}, "geometry": {"type": "Point", "coordinates": [73.091065, 22.437516]}}, {"type": "Feature", "id": "node/10733294271", "properties": {"name": "", "operator": "", "district": "", "kind": "toll_booth"}, "geometry": {"type": "Point", "coordinates": [73.084078, 22.438041]}}, {"type": "Feature", "id": "node/10821479499", "properties": {"name": "", "operator": "", "district": "", "kind": "toll_booth"}, "geometry": {"type": "Point", "coordinates": [72.913998, 20.074921]}}, {"type": "Feature", "id": "node/10821485005", "properties": {"name": "", "operator": "", "district": "", "kind": "toll_booth"}, "geometry": {"type": "Point", "coordinates": [72.915154, 20.077637]}}, {"type": "Feature", "id": "node/11166497289", "properties": {"name": "", "operator": "", "district": "", "kind": "toll_booth"}, "geometry": {"type": "Point", "coordinates": [73.744764, 20.595967]}}, {"type": "Feature", "id": "node/11483539245", "properties": {"name": "", "operator": "", "district": "", "kind": "toll_booth"}, "geometry": {"type": "Point", "coordinates": [73.574096, 22.786656]}}, {"type": "Feature", "id": "node/11483539287", "properties": {"name": "", "operator": "", "district": "", "kind": "toll_booth"}, "geometry": {"type": "Point", "coordinates": [73.57378, 22.786878]}}, {"type": "Feature", "id": "node/11483539331", "properties": {"name": "", "operator": "", "district": "", "kind": "toll_booth"}, "geometry": {"type": "Point", "coordinates": [73.444824, 22.642286]}}, {"type": "Feature", "id": "node/11483539335", "properties": {"name": "", "operator": "", "district": "", "kind": "toll_booth"}, "geometry": {"type": "Point", "coordinates": [73.445425, 22.641711]}}, {"type": "Feature", "id": "node/11483539348", "properties": {"name": "", "operator": "", "district": "", "kind": "toll_booth"}, "geometry": {"type": "Point", "coordinates": [73.448903, 22.645907]}}, {"type": "Feature", "id": "node/11483539358", "properties": {"name": "", "operator": "", "district": "", "kind": "toll_booth"}, "geometry": {"type": "Point", "coordinates": [73.449551, 22.645332]}}, {"type": "Feature", "id": "node/11516541350", "properties": {"name": "", "operator": "", "district": "", "kind": "toll_booth"}, "geometry": {"type": "Point", "coordinates": [71.78409, 23.912343]}}, {"type": "Feature", "id": "node/11516541351", "properties": {"name": "", "operator": "", "district": "", "kind": "toll_booth"}, "geometry": {"type": "Point", "coordinates": [71.783978, 23.912384]}}, {"type": "Feature", "id": "node/12015109002", "properties": {"name": "", "operator": "", "district": "", "kind": "toll_booth"}, "geometry": {"type": "Point", "coordinates": [73.10955, 22.261218]}}, {"type": "Feature", "id": "node/12015109003", "properties": {"name": "", "operator": "", "district": "", "kind": "toll_booth"}, "geometry": {"type": "Point", "coordinates": [73.106557, 22.256094]}}, {"type": "Feature", "id": "node/12015109004", "properties": {"name": "", "operator": "", "district": "", "kind": "toll_booth"}, "geometry": {"type": "Point", "coordinates": [73.109878, 22.255687]}}, {"type": "Feature", "id": "node/12015109037", "properties": {"name": "", "operator": "", "district": "", "kind": "toll_booth"}, "geometry": {"type": "Point", "coordinates": [73.096193, 22.448927]}}, {"type": "Feature", "id": "node/12015109038", "properties": {"name": "", "operator": "", "district": "", "kind": "toll_booth"}, "geometry": {"type": "Point", "coordinates": [73.09656, 22.448634]}}, {"type": "Feature", "id": "node/12213876632", "properties": {"name": "", "operator": "", "district": "", "kind": "toll_booth"}, "geometry": {"type": "Point", "coordinates": [72.423377, 22.506482]}}, {"type": "Feature", "id": "node/12216151906", "properties": {"name": "", "operator": "", "district": "", "kind": "toll_booth"}, "geometry": {"type": "Point", "coordinates": [73.070243, 20.864383]}}, {"type": "Feature", "id": "node/12379112447", "properties": {"name": "", "operator": "", "district": "", "kind": "toll_booth"}, "geometry": {"type": "Point", "coordinates": [71.646967, 24.378649]}}, {"type": "Feature", "id": "node/12379112450", "properties": {"name": "", "operator": "", "district": "", "kind": "toll_booth"}, "geometry": {"type": "Point", "coordinates": [71.646383, 24.378774]}}, {"type": "Feature", "id": "node/12379112457", "properties": {"name": "", "operator": "", "district": "", "kind": "toll_booth"}, "geometry": {"type": "Point", "coordinates": [71.647191, 24.381898]}}, {"type": "Feature", "id": "node/12379112462", "properties": {"name": "", "operator": "", "district": "", "kind": "toll_booth"}, "geometry": {"type": "Point", "coordinates": [71.646612, 24.38193]}}, {"type": "Feature", "id": "node/12379133301", "properties": {"name": "", "operator": "", "district": "", "kind": "toll_booth"}, "geometry": {"type": "Point", "coordinates": [71.768839, 24.714353]}}, {"type": "Feature", "id": "node/12543307805", "properties": {"name": "", "operator": "", "district": "", "kind": "toll_booth"}, "geometry": {"type": "Point", "coordinates": [71.720433, 24.587387]}}, {"type": "Feature", "id": "node/12841143540", "properties": {"name": "", "operator": "", "district": "", "kind": "toll_booth"}, "geometry": {"type": "Point", "coordinates": [72.268975, 24.494072]}}, {"type": "Feature", "id": "node/13104102845", "properties": {"name": "", "operator": "", "district": "", "kind": "toll_booth"}, "geometry": {"type": "Point", "coordinates": [71.773084, 24.715129]}}, {"type": "Feature", "id": "node/13104102852", "properties": {"name": "", "operator": "", "district": "", "kind": "toll_booth"}, "geometry": {"type": "Point", "coordinates": [71.72008, 24.587731]}}, {"type": "Feature", "id": "node/13104102853", "properties": {"name": "", "operator": "", "district": "", "kind": "toll_booth"}, "geometry": {"type": "Point", "coordinates": [71.64994, 24.418944]}}, {"type": "Feature", "id": "node/13104102854", "properties": {"name": "", "operator": "", "district": "", "kind": "toll_booth"}, "geometry": {"type": "Point", "coordinates": [71.649141, 24.418438]}}, {"type": "Feature", "id": "node/13104107838", "properties": {"name": "", "operator": "", "district": "", "kind": "toll_booth"}, "geometry": {"type": "Point", "coordinates": [71.470391, 24.087728]}}, {"type": "Feature", "id": "node/13104107843", "properties": {"name": "", "operator": "", "district": "", "kind": "toll_booth"}, "geometry": {"type": "Point", "coordinates": [71.470533, 24.090656]}}, {"type": "Feature", "id": "node/13104107890", "properties": {"name": "", "operator": "", "district": "", "kind": "toll_booth"}, "geometry": {"type": "Point", "coordinates": [71.471542, 24.090157]}}, {"type": "Feature", "id": "node/13105173586", "properties": {"name": "", "operator": "", "district": "", "kind": "toll_booth"}, "geometry": {"type": "Point", "coordinates": [71.469245, 24.087797]}}, {"type": "Feature", "id": "node/13325868797", "properties": {"name": "", "operator": "", "district": "", "kind": "toll_booth"}, "geometry": {"type": "Point", "coordinates": [72.091598, 21.985039]}}, {"type": "Feature", "id": "node/13325868798", "properties": {"name": "", "operator": "", "district": "", "kind": "toll_booth"}, "geometry": {"type": "Point", "coordinates": [72.091795, 21.985005]}}, {"type": "Feature", "id": "node/13515977544", "properties": {"name": "", "operator": "", "district": "", "kind": "toll_booth"}, "geometry": {"type": "Point", "coordinates": [72.472909, 22.973814]}}, {"type": "Feature", "id": "node/13515977545", "properties": {"name": "", "operator": "", "district": "", "kind": "toll_booth"}, "geometry": {"type": "Point", "coordinates": [72.472954, 22.973835]}}, {"type": "Feature", "id": "node/13515977546", "properties": {"name": "", "operator": "", "district": "", "kind": "toll_booth"}, "geometry": {"type": "Point", "coordinates": [72.473002, 22.973858]}}, {"type": "Feature", "id": "node/13515977547", "properties": {"name": "", "operator": "", "district": "", "kind": "toll_booth"}, "geometry": {"type": "Point", "coordinates": [72.473085, 22.973897]}}, {"type": "Feature", "id": "node/13515977548", "properties": {"name": "", "operator": "", "district": "", "kind": "toll_booth"}, "geometry": {"type": "Point", "coordinates": [72.473125, 22.973916]}}, {"type": "Feature", "id": "node/13515977549", "properties": {"name": "", "operator": "", "district": "", "kind": "toll_booth"}, "geometry": {"type": "Point", "coordinates": [72.473163, 22.973934]}}, {"type": "Feature", "id": "node/13515977551", "properties": {"name": "", "operator": "", "district": "", "kind": "toll_booth"}, "geometry": {"type": "Point", "coordinates": [72.517741, 23.128205]}}, {"type": "Feature", "id": "node/13515977552", "properties": {"name": "", "operator": "", "district": "", "kind": "toll_booth"}, "geometry": {"type": "Point", "coordinates": [72.517821, 23.12811]}}, {"type": "Feature", "id": "node/13865935294", "properties": {"name": "", "operator": "", "district": "", "kind": "toll_booth"}, "geometry": {"type": "Point", "coordinates": [71.339255, 23.910764]}}, {"type": "Feature", "id": "node/13865935300", "properties": {"name": "", "operator": "", "district": "", "kind": "toll_booth"}, "geometry": {"type": "Point", "coordinates": [71.339914, 23.910418]}}, {"type": "Feature", "id": "node/13866000408", "properties": {"name": "", "operator": "", "district": "", "kind": "toll_booth"}, "geometry": {"type": "Point", "coordinates": [71.343508, 23.914082]}}, {"type": "Feature", "id": "node/13866000411", "properties": {"name": "", "operator": "", "district": "", "kind": "toll_booth"}, "geometry": {"type": "Point", "coordinates": [71.344125, 23.913739]}}, {"type": "Feature", "id": "node/13973126133", "properties": {"name": "", "operator": "", "district": "", "kind": "toll_booth"}, "geometry": {"type": "Point", "coordinates": [74.191989, 22.948197]}}, {"type": "Feature", "id": "node/13973126140", "properties": {"name": "", "operator": "", "district": "", "kind": "toll_booth"}, "geometry": {"type": "Point", "coordinates": [74.192045, 22.947947]}}, {"type": "Feature", "id": "node/13973126181", "properties": {"name": "", "operator": "", "district": "", "kind": "toll_booth"}, "geometry": {"type": "Point", "coordinates": [74.00158, 22.857265]}}, {"type": "Feature", "id": "node/13973126193", "properties": {"name": "", "operator": "", "district": "", "kind": "toll_booth"}, "geometry": {"type": "Point", "coordinates": [74.001417, 22.857487]}}, {"type": "Feature", "id": "node/13973779875", "properties": {"name": "", "operator": "", "district": "", "kind": "toll_booth"}, "geometry": {"type": "Point", "coordinates": [72.895367, 22.695846]}}, {"type": "Feature", "id": "node/13973779876", "properties": {"name": "", "operator": "", "district": "", "kind": "toll_booth"}, "geometry": {"type": "Point", "coordinates": [72.895466, 22.696123]}}, {"type": "Feature", "id": "node/13973779878", "properties": {"name": "", "operator": "", "district": "", "kind": "toll_booth"}, "geometry": {"type": "Point", "coordinates": [72.899948, 22.697109]}}, {"type": "Feature", "id": "node/13973779879", "properties": {"name": "", "operator": "", "district": "", "kind": "toll_booth"}, "geometry": {"type": "Point", "coordinates": [72.900269, 22.696994]}}, {"type": "Feature", "id": "node/13973779880", "properties": {"name": "", "operator": "", "district": "", "kind": "toll_booth"}, "geometry": {"type": "Point", "coordinates": [72.897189, 22.701206]}}, {"type": "Feature", "id": "node/13973779881", "properties": {"name": "", "operator": "", "district": "", "kind": "toll_booth"}, "geometry": {"type": "Point", "coordinates": [72.896983, 22.700962]}}, {"type": "Feature", "id": "node/13973779882", "properties": {"name": "", "operator": "", "district": "", "kind": "toll_booth"}, "geometry": {"type": "Point", "coordinates": [72.892322, 22.700202]}}, {"type": "Feature", "id": "node/13973779883", "properties": {"name": "", "operator": "", "district": "", "kind": "toll_booth"}, "geometry": {"type": "Point", "coordinates": [72.892584, 22.699954]}}, {"type": "Feature", "id": "node/14003693944", "properties": {"name": "", "operator": "", "district": "", "kind": "toll_booth"}, "geometry": {"type": "Point", "coordinates": [72.96062, 20.273064]}}, {"type": "Feature", "id": "node/14003693967", "properties": {"name": "", "operator": "", "district": "", "kind": "toll_booth"}, "geometry": {"type": "Point", "coordinates": [72.960366, 20.27295]}}, {"type": "Feature", "id": "node/14003694107", "properties": {"name": "", "operator": "", "district": "", "kind": "toll_booth"}, "geometry": {"type": "Point", "coordinates": [73.070467, 20.864264]}}, {"type": "Feature", "id": "node/14042850750", "properties": {"name": "", "operator": "", "district": "", "kind": "toll_booth"}, "geometry": {"type": "Point", "coordinates": [73.120903, 22.460183]}}, {"type": "Feature", "id": "node/14042850751", "properties": {"name": "", "operator": "", "district": "", "kind": "toll_booth"}, "geometry": {"type": "Point", "coordinates": [73.116679, 22.461792]}}, {"type": "Feature", "id": "node/14042850752", "properties": {"name": "", "operator": "", "district": "", "kind": "toll_booth"}, "geometry": {"type": "Point", "coordinates": [73.117684, 22.453242]}}, {"type": "Feature", "id": "way/509599812", "properties": {"name": "Malera toll booth", "operator": "", "district": "", "kind": "toll_booth"}, "geometry": {"type": "Point", "coordinates": [73.093762, 24.71236]}}, {"type": "Feature", "id": "way/542061770", "properties": {"name": "", "operator": "", "district": "", "kind": "toll_booth"}, "geometry": {"type": "Point", "coordinates": [73.760895, 24.799836]}}, {"type": "Feature", "id": "way/553046437", "properties": {"name": "", "operator": "", "district": "", "kind": "toll_booth"}, "geometry": {"type": "Point", "coordinates": [72.9225, 21.090484]}}, {"type": "Feature", "id": "way/553135797", "properties": {"name": "", "operator": "", "district": "", "kind": "toll_booth"}, "geometry": {"type": "Point", "coordinates": [73.533273, 22.792271]}}, {"type": "Feature", "id": "way/729127668", "properties": {"name": "", "operator": "", "district": "", "kind": "toll_booth"}, "geometry": {"type": "Point", "coordinates": [70.272074, 23.345396]}}, {"type": "Feature", "id": "way/1204808547", "properties": {"name": "", "operator": "", "district": "", "kind": "toll_booth"}, "geometry": {"type": "Point", "coordinates": [72.473042, 22.973868]}}, {"type": "Feature", "id": "way/1319730769", "properties": {"name": "OkhaMadi Toll Plaza", "operator": "", "district": "", "kind": "toll_booth"}, "geometry": {"type": "Point", "coordinates": [69.13334, 22.08025]}}]}