{"type": "FeatureCollection", "features": [{"type": "Feature", "id": 356482573, "properties": {"kind": "bus_station", "name": "Udaipur Bus Stand", "operator": ""}, "geometry": {"type": "Point", "coordinates": [73.7008419, 24.5758888]}}, {"type": "Feature", "id": 665176429, "properties": {"kind": "bus_station", "name": "Sayaji Park Busstop", "operator": ""}, "geometry": {"type": "Point", "coordinates": [73.2428234, 22.31432]}}, {"type": "Feature", "id": 1063815753, "properties": {"kind": "bus_station", "name": "Dhoraji", "operator": ""}, "geometry": {"type": "Point", "coordinates": [70.4591737, 21.7361324]}}, {"type": "Feature", "id": 1063815886, "properties": {"kind": "bus_station", "name": "Jetpur", "operator": ""}, "geometry": {"type": "Point", "coordinates": [70.6191077, 21.7556058]}}, {"type": "Feature", "id": 1063903519, "properties": {"kind": "bus_station", "name": "", "operator": ""}, "geometry": {"type": "Point", "coordinates": [69.0101046, 22.4116038]}}, {"type": "Feature", "id": 1063968066, "properties": {"kind": "bus_station", "name": "Old Bus Stand", "operator": ""}, "geometry": {"type": "Point", "coordinates": [72.8591243, 22.6929336]}}, {"type": "Feature", "id": 1067692535, "properties": {"kind": "bus_station", "name": "Anand New bus stand", "operator": "GSRTC"}, "geometry": {"type": "Point", "coordinates": [72.9557261, 22.5572959]}}, {"type": "Feature", "id": 1068857962, "properties": {"kind": "bus_station", "name": "", "operator": ""}, "geometry": {"type": "Point", "coordinates": [74.2640018, 22.8305626]}}, {"type": "Feature", "id": 1268371872, "properties": {"kind": "bus_station", "name": "BUS STATION, MADHAPAR", "operator": ""}, "geometry": {"type": "Point", "coordinates": [69.7084346, 23.2392907]}}, {"type": "Feature", "id": 1315994766, "properties": {"kind": "bus_station", "name": "GSRTC Bus Station", "operator": ""}, "geometry": {"type": "Point", "coordinates": [72.1366728, 21.7699102]}}, {"type": "Feature", "id": 1316007820, "properties": {"kind": "bus_station", "name": "Limbdi", "operator": ""}, "geometry": {"type": "Point", "coordinates": [71.8077522, 22.5704162]}}, {"type": "Feature", "id": 1349429275, "properties": {"kind": "bus_station", "name": "D-cabin", "operator": ""}, "geometry": {"type": "Point", "coordinates": [72.5702646, 23.1023628]}}, {"type": "Feature", "id": 1349429278, "properties": {"kind": "bus_station", "name": "Vallabhpark", "operator": ""}, "geometry": {"type": "Point", "coordinates": [72.576519, 23.101524]}}, {"type": "Feature", "id": 1496113072, "properties": {"kind": "bus_station", "name": "", "operator": ""}, "geometry": {"type": "Point", "coordinates": [72.6265727, 22.3218526]}}, {"type": "Feature", "id": 1600971775, "properties": {"kind": "bus_station", "name": "Bhuj Bus Stand (private buses)", "operator": ""}, "geometry": {"type": "Point", "coordinates": [69.6711155, 23.2468807]}}, {"type": "Feature", "id": 1684860174, "properties": {"kind": "bus_station", "name": "Bharuch ST Bus Stand", "operator": ""}, "geometry": {"type": "Point", "coordinates": [72.9968285, 21.7031394]}}, {"type": "Feature", "id": 1802578699, "properties": {"kind": "bus_station", "name": "Chikali Bus stand", "operator": ""}, "geometry": {"type": "Point", "coordinates": [73.0591504, 20.7605745]}}, {"type": "Feature", "id": 1963083947, "properties": {"kind": "bus_station", "name": "Mt Abu Bus", "operator": ""}, "geometry": {"type": "Point", "coordinates": [72.7131264, 24.5892391]}}, {"type": "Feature", "id": 2558169854, "properties": {"kind": "bus_station", "name": "", "operator": ""}, "geometry": {"type": "Point", "coordinates": [71.3881429, 21.7331789]}}, {"type": "Feature", "id": 2668716004, "properties": {"kind": "bus_station", "name": "", "operator": ""}, "geometry": {"type": "Point", "coordinates": [74.0142787, 22.3085918]}}, {"type": "Feature", "id": 2875977025, "properties": {"kind": "bus_station", "name": "", "operator": ""}, "geometry": {"type": "Point", "coordinates": [73.0038671, 20.2681738]}}, {"type": "Feature", "id": 2876168270, "properties": {"kind": "bus_station", "name": "", "operator": ""}, "geometry": {"type": "Point", "coordinates": [73.4118004, 22.1323522]}}, {"type": "Feature", "id": 3102089952, "properties": {"kind": "bus_station", "name": "", "operator": ""}, "geometry": {"type": "Point", "coordinates": [72.1244637, 23.8532919]}}, {"type": "Feature", "id": 3161575026, "properties": {"kind": "bus_station", "name": "Navrangpura", "operator": "AMTS"}, "geometry": {"type": "Point", "coordinates": [72.5641854, 23.0355882]}}, {"type": "Feature", "id": 3177907725, "properties": {"kind": "bus_station", "name": "Vanakbara", "operator": ""}, "geometry": {"type": "Point", "coordinates": [70.8767575, 20.7166347]}}, {"type": "Feature", "id": 3179784306, "properties": {"kind": "bus_station", "name": "Somanath Bus Stand\u200e", "operator": ""}, "geometry": {"type": "Point", "coordinates": [70.4050812, 20.8877653]}}, {"type": "Feature", "id": 3210818760, "properties": {"kind": "bus_station", "name": "Halvad Bus Stand", "operator": ""}, "geometry": {"type": "Point", "coordinates": [71.1857601, 23.0132661]}}, {"type": "Feature", "id": 3211182433, "properties": {"kind": "bus_station", "name": "GSRTC Central Bus Station", "operator": ""}, "geometry": {"type": "Point", "coordinates": [70.802181, 22.2910472]}}, {"type": "Feature", "id": 3211212214, "properties": {"kind": "bus_station", "name": "Mahasagar Travels Terminal", "operator": ""}, "geometry": {"type": "Point", "coordinates": [70.4641276, 21.5359054]}}, {"type": "Feature", "id": 3211245439, "properties": {"kind": "bus_station", "name": "City Bus Stand", "operator": ""}, "geometry": {"type": "Point", "coordinates": [72.1436098, 21.7762794]}}, {"type": "Feature", "id": 3294480451, "properties": {"kind": "bus_station", "name": "Keshod", "operator": ""}, "geometry": {"type": "Point", "coordinates": [70.2505199, 21.2951067]}}, {"type": "Feature", "id": 3294481251, "properties": {"kind": "bus_station", "name": "Vanthali", "operator": ""}, "geometry": {"type": "Point", "coordinates": [70.3346589, 21.4765548]}}, {"type": "Feature", "id": 3299342030, "properties": {"kind": "bus_station", "name": "Adipur Busstand new", "operator": ""}, "geometry": {"type": "Point", "coordinates": [70.0770001, 23.0655428]}}, {"type": "Feature", "id": 3333487128, "properties": {"kind": "bus_station", "name": "Maninagar Bus stop", "operator": ""}, "geometry": {"type": "Point", "coordinates": [72.6259649, 22.99746]}}, {"type": "Feature", "id": 3333942359, "properties": {"kind": "bus_station", "name": "Maninagar Railway Station", "operator": ""}, "geometry": {"type": "Point", "coordinates": [72.6109437, 22.9986995]}}, {"type": "Feature", "id": 3335600154, "properties": {"kind": "bus_station", "name": "Krishna Nagar Bus Statiom", "operator": "AMTS, Janmarg BRTS"}, "geometry": {"type": "Point", "coordinates": [72.6558075, 23.0770964]}}, {"type": "Feature", "id": 3336777167, "properties": {"kind": "bus_station", "name": "Ahmedabad", "operator": ""}, "geometry": {"type": "Point", "coordinates": [72.5984903, 23.0218734]}}, {"type": "Feature", "id": 3355794772, "properties": {"kind": "bus_station", "name": "Lal Darwaja AMTS Bus Stop", "operator": "Ahmedabad Municipal Transport Service"}, "geometry": {"type": "Point", "coordinates": [72.5785562, 23.0241902]}}, {"type": "Feature", "id": 3399309434, "properties": {"kind": "bus_station", "name": "Virpur Bus Station", "operator": ""}, "geometry": {"type": "Point", "coordinates": [70.6937093, 21.8443215]}}, {"type": "Feature", "id": 3600626093, "properties": {"kind": "bus_station", "name": "Nani Daman Bus Depot", "operator": ""}, "geometry": {"type": "Point", "coordinates": [72.838144, 20.4168271]}}, {"type": "Feature", "id": 4287712925, "properties": {"kind": "bus_station", "name": "", "operator": ""}, "geometry": {"type": "Point", "coordinates": [70.1456208, 23.0728246]}}, {"type": "Feature", "id": 4295963091, "properties": {"kind": "bus_station", "name": "JJ raval", "operator": ""}, "geometry": {"type": "Point", "coordinates": [72.3798227, 23.596799]}}, {"type": "Feature", "id": 4296107389, "properties": {"kind": "bus_station", "name": "Patel tour n travels", "operator": ""}, "geometry": {"type": "Point", "coordinates": [72.3798421, 23.5964699]}}, {"type": "Feature", "id": 4297542189, "properties": {"kind": "bus_station", "name": "Mahesana old bus station", "operator": "gujrat gov.GSRTC"}, "geometry": {"type": "Point", "coordinates": [72.3913951, 23.6068383]}}, {"type": "Feature", "id": 4314216397, "properties": {"kind": "bus_station", "name": "Rajkot Bus station", "operator": ""}, "geometry": {"type": "Point", "coordinates": [70.8021408, 22.2911476]}}, {"type": "Feature", "id": 4346866166, "properties": {"kind": "bus_station", "name": "UNJHA", "operator": ""}, "geometry": {"type": "Point", "coordinates": [72.3801425, 23.8064926]}}, {"type": "Feature", "id": 4414344011, "properties": {"kind": "bus_station", "name": "Vijapur", "operator": ""}, "geometry": {"type": "Point", "coordinates": [72.74592, 23.5583342]}}, {"type": "Feature", "id": 4454478189, "properties": {"kind": "bus_station", "name": "Viramgam", "operator": ""}, "geometry": {"type": "Point", "coordinates": [72.0511173, 23.1270255]}}, {"type": "Feature", "id": 4458099589, "properties": {"kind": "bus_station", "name": "Biliya sidhpur", "operator": ""}, "geometry": {"type": "Point", "coordinates": [72.3919596, 23.8883989]}}, {"type": "Feature", "id": 4542091189, "properties": {"kind": "bus_station", "name": "", "operator": ""}, "geometry": {"type": "Point", "coordinates": [73.1456877, 22.0701565]}}, {"type": "Feature", "id": 4576976593, "properties": {"kind": "bus_station", "name": "AMARAPUR", "operator": ""}, "geometry": {"type": "Point", "coordinates": [71.045658, 21.617261]}}, {"type": "Feature", "id": 4585303034, "properties": {"kind": "bus_station", "name": "Petlad###", "operator": ""}, "geometry": {"type": "Point", "coordinates": [72.7959352, 22.4916364]}}, {"type": "Feature", "id": 4596190989, "properties": {"kind": "bus_station", "name": "", "operator": ""}, "geometry": {"type": "Point", "coordinates": [70.4418893, 21.5063945]}}, {"type": "Feature", "id": 4722635658, "properties": {"kind": "bus_station", "name": "Dehgam Bus Station", "operator": ""}, "geometry": {"type": "Point", "coordinates": [72.8205504, 23.1710164]}}, {"type": "Feature", "id": 4819746022, "properties": {"kind": "bus_station", "name": "", "operator": ""}, "geometry": {"type": "Point", "coordinates": [73.7054527, 22.1829444]}}, {"type": "Feature", "id": 4830849425, "properties": {"kind": "bus_station", "name": "", "operator": ""}, "geometry": {"type": "Point", "coordinates": [72.7877398, 24.4854612]}}, {"type": "Feature", "id": 4994951527, "properties": {"kind": "bus_station", "name": "", "operator": ""}, "geometry": {"type": "Point", "coordinates": [74.2772967, 22.8219942]}}, {"type": "Feature", "id": 5037460522, "properties": {"kind": "bus_station", "name": "Mahasagar Bus Booking Office", "operator": ""}, "geometry": {"type": "Point", "coordinates": [70.4591209, 21.5105862]}}, {"type": "Feature", "id": 5237306325, "properties": {"kind": "bus_station", "name": "", "operator": ""}, "geometry": {"type": "Point", "coordinates": [73.6998708, 24.5767945]}}, {"type": "Feature", "id": 5241119321, "properties": {"kind": "bus_station", "name": "New Rajkot bus stop", "operator": ""}, "geometry": {"type": "Point", "coordinates": [70.7983672, 22.2988299]}}, {"type": "Feature", "id": 5241523721, "properties": {"kind": "bus_station", "name": "Rajkot New Bus Station", "operator": ""}, "geometry": {"type": "Point", "coordinates": [70.7989498, 22.2954988]}}, {"type": "Feature", "id": 5540117738, "properties": {"kind": "bus_station", "name": "Kankaria Telephone exchange", "operator": "BRTS, Ahmedabad"}, "geometry": {"type": "Point", "coordinates": [72.5928352, 23.0024253]}}, {"type": "Feature", "id": 5711622445, "properties": {"kind": "bus_station", "name": "Ghuma BRTS terminal", "operator": ""}, "geometry": {"type": "Point", "coordinates": [72.4483279, 23.0309359]}}, {"type": "Feature", "id": 5711634722, "properties": {"kind": "bus_station", "name": "AMTS Ghuma Bus terminal", "operator": ""}, "geometry": {"type": "Point", "coordinates": [72.4501878, 23.030556]}}, {"type": "Feature", "id": 6050565986, "properties": {"kind": "bus_station", "name": "", "operator": ""}, "geometry": {"type": "Point", "coordinates": [73.6922881, 24.5561431]}}, {"type": "Feature", "id": 6220339585, "properties": {"kind": "bus_station", "name": "", "operator": ""}, "geometry": {"type": "Point", "coordinates": [73.7064104, 24.5605822]}}, {"type": "Feature", "id": 6708180889, "properties": {"kind": "bus_station", "name": "Kera Bus Station", "operator": ""}, "geometry": {"type": "Point", "coordinates": [69.5966533, 23.0807928]}}, {"type": "Feature", "id": 6800346587, "properties": {"kind": "bus_station", "name": "Shravan Chokadi", "operator": ""}, "geometry": {"type": "Point", "coordinates": [72.9856122, 21.721771]}}, {"type": "Feature", "id": 7020233387, "properties": {"kind": "bus_station", "name": "", "operator": ""}, "geometry": {"type": "Point", "coordinates": [72.5895319, 23.0430359]}}, {"type": "Feature", "id": 7027831017, "properties": {"kind": "bus_station", "name": "Bhuj Bus Depot", "operator": ""}, "geometry": {"type": "Point", "coordinates": [69.6707599, 23.2500919]}}, {"type": "Feature", "id": 7491687161, "properties": {"kind": "bus_station", "name": "Raiya Telephone Ex. BRTS Station", "operator": ""}, "geometry": {"type": "Point", "coordinates": [70.7705967, 22.293883]}}, {"type": "Feature", "id": 7563289922, "properties": {"kind": "bus_station", "name": "Waghodia Bus Depot", "operator": ""}, "geometry": {"type": "Point", "coordinates": [73.3986589, 22.307228]}}, {"type": "Feature", "id": 7728527139, "properties": {"kind": "bus_station", "name": "Kalol Bus Depot", "operator": ""}, "geometry": {"type": "Point", "coordinates": [73.4611552, 22.6076965]}}, {"type": "Feature", "id": 7976846808, "properties": {"kind": "bus_station", "name": "", "operator": ""}, "geometry": {"type": "Point", "coordinates": [74.2169109, 21.5627024]}}, {"type": "Feature", "id": 8000925105, "properties": {"kind": "bus_station", "name": "Dindori Bus Station", "operator": ""}, "geometry": {"type": "Point", "coordinates": [73.8308139, 20.2017343]}}, {"type": "Feature", "id": 8003247975, "properties": {"kind": "bus_station", "name": "GSRTC Bus Stand Talala", "operator": "GSRTC"}, "geometry": {"type": "Point", "coordinates": [70.5289222, 21.0517916]}}, {"type": "Feature", "id": 8153542476, "properties": {"kind": "bus_station", "name": "Bopal gam", "operator": ""}, "geometry": {"type": "Point", "coordinates": [72.4641074, 23.0340108]}}, {"type": "Feature", "id": 8153545458, "properties": {"kind": "bus_station", "name": "Sterling City", "operator": ""}, "geometry": {"type": "Point", "coordinates": [72.4691519, 23.0323222]}}, {"type": "Feature", "id": 8229760639, "properties": {"kind": "bus_station", "name": "Dhandhuka bus station", "operator": ""}, "geometry": {"type": "Point", "coordinates": [71.9772907, 22.3809167]}}, {"type": "Feature", "id": 9218460467, "properties": {"kind": "bus_station", "name": "Samakhiali New Bus Station", "operator": ""}, "geometry": {"type": "Point", "coordinates": [70.5094066, 23.3067038]}}, {"type": "Feature", "id": 10039873864, "properties": {"kind": "bus_station", "name": "Tankara Bus Station", "operator": ""}, "geometry": {"type": "Point", "coordinates": [70.745956, 22.6548149]}}, {"type": "Feature", "id": 10203915716, "properties": {"kind": "bus_station", "name": "Dhrol Bus Station", "operator": ""}, "geometry": {"type": "Point", "coordinates": [70.4146052, 22.5631787]}}, {"type": "Feature", "id": 10806672305, "properties": {"kind": "bus_station", "name": "New Bus Stand Morbi \u0aa8\u0acd\u0aaf\u0ac2 \u0aac\u0ab8 \u0ab8\u0acd\u0a9f\u0ac7\u0aa8\u0acd\u0aa1 \u0aae\u0acb\u0ab0\u0aac\u0ac0", "operator": ""}, "geometry": {"type": "Point", "coordinates": [70.822928, 22.8076802]}}, {"type": "Feature", "id": 11097501605, "properties": {"kind": "bus_station", "name": "New Bus station", "operator": ""}, "geometry": {"type": "Point", "coordinates": [69.6559207, 23.2456083]}}, {"type": "Feature", "id": 11125359305, "properties": {"kind": "bus_station", "name": "Vadodara New Bus Station", "operator": ""}, "geometry": {"type": "Point", "coordinates": [73.1810522, 22.3135386]}}, {"type": "Feature", "id": 11125447905, "properties": {"kind": "bus_station", "name": "shared jeeps up the hill", "operator": ""}, "geometry": {"type": "Point", "coordinates": [73.5358896, 22.4830135]}}, {"type": "Feature", "id": 11150049341, "properties": {"kind": "bus_station", "name": "Station road", "operator": ""}, "geometry": {"type": "Point", "coordinates": [70.5297296, 21.6622756]}}, {"type": "Feature", "id": 11635860400, "properties": {"kind": "bus_station", "name": "Bhatiya bus station relay", "operator": ""}, "geometry": {"type": "Point", "coordinates": [69.278583, 22.0896065]}}, {"type": "Feature", "id": 11687252869, "properties": {"kind": "bus_station", "name": "Patan Bus Port", "operator": ""}, "geometry": {"type": "Point", "coordinates": [72.1410412, 23.8523564]}}, {"type": "Feature", "id": 12101979373, "properties": {"kind": "bus_station", "name": "Goverdhan Chowk", "operator": ""}, "geometry": {"type": "Point", "coordinates": [70.7906383, 22.2515686]}}, {"type": "Feature", "id": 12102059634, "properties": {"kind": "bus_station", "name": "ZAKHAR PATIYA", "operator": ""}, "geometry": {"type": "Point", "coordinates": [69.7751841, 22.3314784]}}, {"type": "Feature", "id": 12122464054, "properties": {"kind": "bus_station", "name": "Bus Stand for Zero Point", "operator": ""}, "geometry": {"type": "Point", "coordinates": [71.2129308, 24.2206025]}}, {"type": "Feature", "id": 12190241430, "properties": {"kind": "bus_station", "name": "Bus Stand", "operator": "GSRTC"}, "geometry": {"type": "Point", "coordinates": [70.8163001, 21.6873993]}}, {"type": "Feature", "id": 13179418452, "properties": {"kind": "bus_station", "name": "", "operator": ""}, "geometry": {"type": "Point", "coordinates": [68.966081, 22.2400774]}}, {"type": "Feature", "id": 13208509983, "properties": {"kind": "bus_station", "name": "Palitana Taleti Bus stop", "operator": ""}, "geometry": {"type": "Point", "coordinates": [71.8155098, 21.5084456]}}, {"type": "Feature", "id": 13634610212, "properties": {"kind": "bus_station", "name": "Dwarka Bus Station", "operator": ""}, "geometry": {"type": "Point", "coordinates": [68.9637644, 22.2455022]}}]}